{
"type": "FeatureCollection",
"name": "ari_study_area_boundary",
"crs": { "type": "name", "properties": { "name": "urn:ogc:def:crs:OGC:1.3:CRS84" } },
"features": [
{ "type": "Feature", "properties": { "name": "ARI Study Area", "description": "Study area from Sinclair et al. (2021) Pre-colonial plant list for the City of Melbourne", "suburbs_included": "CARLTON, CARLTON NORTH, DOCKLANDS, EAST MELBOURNE, FLEMINGTON, KENSINGTON, MELBOURNE, NORTH MELBOURNE, PARKVILLE, PORT MELBOURNE, SOUTH WHARF, SOUTH YARRA, SOUTHBANK, WEST MELBOURNE", "area_km2": 48.345067617109891 }, "geometry": { "type": "Polygon", "coordinates": [ [ [ 144.899334011, -37.828432652 ], [ 144.900831462000014, -37.826807841 ], [ 144.901862169, -37.825894489 ], [ 144.903028840000019, -37.824908653 ], [ 144.904279424, -37.823858507 ], [ 144.904834509000011, -37.823397768 ], [ 144.905086676, -37.823188497 ], [ 144.905414045000015, -37.822872435 ], [ 144.90606479500002, -37.82224416 ], [ 144.906640988000021, -37.821005248 ], [ 144.906533991, -37.819770697 ], [ 144.906286316, -37.818393419 ], [ 144.905971447000013, -37.817096238 ], [ 144.905627111, -37.815682488 ], [ 144.905563950000015, -37.815298961 ], [ 144.90544073, -37.814550747 ], [ 144.905468086000013, -37.813453849 ], [ 144.905926202000018, -37.811090554 ], [ 144.906213348000023, -37.809807346 ], [ 144.906306086, -37.809392913 ], [ 144.906684176, -37.808232508 ], [ 144.907027507, -37.807418343 ], [ 144.90753070300002, -37.806225092 ], [ 144.907521237, -37.806222186 ], [ 144.907613698, -37.806044882 ], [ 144.907789635, -37.805703786 ], [ 144.908152642, -37.804830282 ], [ 144.908695443, -37.803546728 ], [ 144.909219879, -37.802470128 ], [ 144.909853661, -37.801381948 ], [ 144.910101442000013, -37.801012358 ], [ 144.910167311, -37.800932429 ], [ 144.910176761, -37.800919069 ], [ 144.910185103, -37.800905707 ], [ 144.910222681000022, -37.800861319 ], [ 144.910260402, -37.800812429 ], [ 144.91031441200002, -37.800750318 ], [ 144.910360082000011, -37.800701568 ], [ 144.910403461000016, -37.800652757 ], [ 144.91047586800002, -37.800581974 ], [ 144.910922696, -37.800121272 ], [ 144.910980979000016, -37.80006823 ], [ 144.911057523000011, -37.800011014 ], [ 144.911159201, -37.799949725 ], [ 144.911302090000021, -37.799875658 ], [ 144.911318242000021, -37.799866937 ], [ 144.911529642, -37.799780558 ], [ 144.911778600000019, -37.799690351 ], [ 144.911902176000012, -37.799657809 ], [ 144.912144798000014, -37.799599603 ], [ 144.912359169000013, -37.799561712 ], [ 144.912509660000012, -37.799541238 ], [ 144.91273507, -37.799522749 ], [ 144.912900702, -37.799530179 ], [ 144.913039841, -37.799550651 ], [ 144.913134378, -37.799581254 ], [ 144.913425605000015, -37.799725029 ], [ 144.913483515, -37.799765823 ], [ 144.913596507000022, -37.799866975 ], [ 144.913714447000018, -37.799954667 ], [ 144.913842587, -37.800042553 ], [ 144.913945122, -37.800111976 ], [ 144.914080816, -37.800172852 ], [ 144.914195765000017, -37.800206476 ], [ 144.914314435000023, -37.800226601 ], [ 144.914588033, -37.800231412 ], [ 144.914701675, -37.800228905 ], [ 144.91475855600001, -37.800225403 ], [ 144.914811016000016, -37.800217323 ], [ 144.91498810600001, -37.800179891 ], [ 144.915090285000019, -37.800141136 ], [ 144.915170882000012, -37.800101992 ], [ 144.91526789, -37.80004513 ], [ 144.915346834000019, -37.799983434 ], [ 144.915413324000014, -37.799921545 ], [ 144.91566343400001, -37.799669119 ], [ 144.915717164, -37.799615999 ], [ 144.915800183000016, -37.799531854 ], [ 144.915873726, -37.799420449 ], [ 144.915973728000012, -37.799336661 ], [ 144.916084976, -37.79921697 ], [ 144.91622296700001, -37.799034673 ], [ 144.916331947, -37.798833837 ], [ 144.916407635000013, -37.798645943 ], [ 144.916448066000015, -37.798461919 ], [ 144.916464694000013, -37.798346051 ], [ 144.916464905, -37.798344531 ], [ 144.916477536, -37.798256522 ], [ 144.916490256, -37.798168059 ], [ 144.91650424300002, -37.798070933 ], [ 144.916493548, -37.797976055 ], [ 144.916466365000019, -37.797890162 ], [ 144.916399379000012, -37.797739435 ], [ 144.916302819, -37.797478702 ], [ 144.916137096, -37.797240279 ], [ 144.915917864000022, -37.796987735 ], [ 144.915893046, -37.796962952 ], [ 144.915716142, -37.796786445 ], [ 144.91548638, -37.796625021 ], [ 144.915428782000021, -37.796582912 ], [ 144.915005607000012, -37.796287013 ], [ 144.914379089000022, -37.795910952 ], [ 144.913677, -37.7955155 ], [ 144.913059452, -37.795210723 ], [ 144.913042602000019, -37.795202403 ], [ 144.912947902000013, -37.795155663 ], [ 144.912850991, -37.795111422 ], [ 144.912620730000015, -37.795004207 ], [ 144.912167620000019, -37.794794778 ], [ 144.911470679000018, -37.794534129 ], [ 144.911435166000018, -37.794521818 ], [ 144.91124689900002, -37.794465053 ], [ 144.910966988000013, -37.794388783 ], [ 144.910794355, -37.794331494 ], [ 144.91077834, -37.794326674 ], [ 144.910665977, -37.794293381 ], [ 144.910326914, -37.794198333 ], [ 144.910262615000022, -37.794177958 ], [ 144.910172919000019, -37.794158431 ], [ 144.910087739, -37.79412974 ], [ 144.910000769000021, -37.794109123 ], [ 144.909912639, -37.794092022 ], [ 144.909832415000011, -37.794079687 ], [ 144.909388896, -37.793968334 ], [ 144.909038234, -37.793885432 ], [ 144.90895177500002, -37.793861202 ], [ 144.908738387, -37.793796235 ], [ 144.908658808000013, -37.793767355 ], [ 144.908282947, -37.793608742 ], [ 144.908246787, -37.793595071 ], [ 144.908239576, -37.793592301 ], [ 144.908075623, -37.793525582 ], [ 144.907957563, -37.793466463 ], [ 144.907877723000013, -37.79343298 ], [ 144.907458695, -37.79320825 ], [ 144.907285796, -37.793119448 ], [ 144.907208588, -37.793078563 ], [ 144.906970148, -37.792945225 ], [ 144.906934026000016, -37.792932871 ], [ 144.906901208000022, -37.79291597 ], [ 144.906775619, -37.792861631 ], [ 144.90580007, -37.792497676 ], [ 144.904995924000019, -37.792168464 ], [ 144.90490594000002, -37.79214441 ], [ 144.904514981, -37.792022281 ], [ 144.904273688000018, -37.791926711 ], [ 144.904060074, -37.791830222 ], [ 144.903791606, -37.791676929 ], [ 144.90351504100002, -37.791465483 ], [ 144.903328001, -37.791282559 ], [ 144.903130898, -37.791032475 ], [ 144.902831729000013, -37.790546913 ], [ 144.902738774, -37.790356219 ], [ 144.902718789, -37.79029832 ], [ 144.902715226, -37.790282795 ], [ 144.902628486, -37.78987791 ], [ 144.902622162, -37.789846673 ], [ 144.90261347500001, -37.78980637 ], [ 144.902619979, -37.789735446 ], [ 144.90262696100001, -37.789661458 ], [ 144.90354331, -37.789285483 ], [ 144.904010605, -37.788954147 ], [ 144.904249885000013, -37.788718456 ], [ 144.904314525000018, -37.788619034 ], [ 144.904401399000022, -37.788477288 ], [ 144.904484212, -37.788333988 ], [ 144.904562932, -37.788189233 ], [ 144.904637486000013, -37.788043005 ], [ 144.904707786000017, -37.787895501 ], [ 144.904773816000016, -37.787746807 ], [ 144.904835543000019, -37.787596912 ], [ 144.904890338, -37.787422222 ], [ 144.904927145000016, -37.787294431 ], [ 144.905031589, -37.787316731 ], [ 144.90503454, -37.787309824 ], [ 144.905038195, -37.787302744 ], [ 144.905042681, -37.787296028 ], [ 144.905047938, -37.787289735 ], [ 144.905053898, -37.787283846 ], [ 144.90506048200001, -37.787278375 ], [ 144.90506764, -37.787273369 ], [ 144.905075311000019, -37.787268829 ], [ 144.905083405, -37.78726481 ], [ 144.90509183, -37.787261357 ], [ 144.905100715, -37.787258393 ], [ 144.905109982, -37.787255982 ], [ 144.905119516000013, -37.787254155 ], [ 144.905129191000015, -37.787252933 ], [ 144.90513887900002, -37.787252329 ], [ 144.905149391, -37.787252383 ], [ 144.905159664, -37.787253078 ], [ 144.905169211000015, -37.787254723 ], [ 144.906320144, -37.787450417 ], [ 144.906424517, -37.786985573 ], [ 144.906443537, -37.786941578 ], [ 144.906452066000014, -37.786903237 ], [ 144.906464459, -37.786828065 ], [ 144.906471925, -37.786752342 ], [ 144.906477974000012, -37.786701113 ], [ 144.906554251000017, -37.78602193 ], [ 144.906635118, -37.785551284 ], [ 144.906670593, -37.785394639 ], [ 144.90671053, -37.785238663 ], [ 144.906754911, -37.785083422 ], [ 144.906803712, -37.784929017 ], [ 144.906856896000022, -37.784775525 ], [ 144.906914476, -37.784622956 ], [ 144.90697641, -37.784471517 ], [ 144.907042610000019, -37.784321257 ], [ 144.907113116, -37.784172156 ], [ 144.907187834000013, -37.784024395 ], [ 144.907266748000012, -37.783878017 ], [ 144.907349436, -37.783732815 ], [ 144.90743676, -37.783589126 ], [ 144.907528365000019, -37.783447617 ], [ 144.907623623, -37.783307538 ], [ 144.907722836, -37.78316918 ], [ 144.907825888000019, -37.783032598 ], [ 144.907932889000023, -37.782897757 ], [ 144.908043068000012, -37.782766687 ], [ 144.908158264, -37.782634329 ], [ 144.90827661900002, -37.78250568 ], [ 144.908278270000011, -37.782503927 ], [ 144.913586002000017, -37.779390054 ], [ 144.914531945000022, -37.780394126 ], [ 144.914822911000016, -37.780661755 ], [ 144.917327596, -37.783316668 ], [ 144.917632291000018, -37.783633585 ], [ 144.917778304, -37.783638629 ], [ 144.922034745000019, -37.783688456 ], [ 144.922587357, -37.780356879 ], [ 144.922803104, -37.780378063 ], [ 144.922882885, -37.780386079 ], [ 144.922960509, -37.780392954 ], [ 144.923039408000022, -37.780401803 ], [ 144.92311784, -37.780408779 ], [ 144.923195168, -37.780417508 ], [ 144.923223653, -37.78042042 ], [ 144.92327262400002, -37.780425488 ], [ 144.923275965000016, -37.780408597 ], [ 144.923351560000015, -37.780418939 ], [ 144.923300259, -37.780724462 ], [ 144.92330010500001, -37.780725356 ], [ 144.923413177000015, -37.780736802 ], [ 144.923509494, -37.780746031 ], [ 144.923753609000016, -37.780771135 ], [ 144.923771147, -37.78077407 ], [ 144.923850154, -37.780781366 ], [ 144.924137931000018, -37.780810396 ], [ 144.924153244, -37.780811925 ], [ 144.924293461000019, -37.780825927 ], [ 144.924431764000019, -37.780839736 ], [ 144.924450005000011, -37.780841558 ], [ 144.924450143, -37.780840773 ], [ 144.924474196, -37.780705295 ], [ 144.924476999, -37.780681534 ], [ 144.92450172400001, -37.780532798 ], [ 144.924503308, -37.780530131 ], [ 144.924508064, -37.780502348 ], [ 144.924641734, -37.780514614 ], [ 144.924703534, -37.780520757 ], [ 144.924762521000019, -37.780527532 ], [ 144.92482057, -37.780533293 ], [ 144.925113032000013, -37.780564703 ], [ 144.925179419000017, -37.780208415 ], [ 144.926426015, -37.780325861 ], [ 144.926431255000011, -37.780332801 ], [ 144.926437627000013, -37.780339681 ], [ 144.926442857000012, -37.780346621 ], [ 144.926449127000012, -37.780353507 ], [ 144.926454432000014, -37.780360627 ], [ 144.926460676, -37.780367787 ], [ 144.926465887, -37.780374825 ], [ 144.926472223000019, -37.780381987 ], [ 144.926477437000017, -37.780389115 ], [ 144.926483680000018, -37.780395197 ], [ 144.926488984, -37.780403315 ], [ 144.926495225, -37.780410385 ], [ 144.926500439000023, -37.780417513 ], [ 144.926505734000017, -37.780424633 ], [ 144.926511775000023, -37.780431735 ], [ 144.92651771300001, -37.780438927 ], [ 144.926522711000018, -37.78044608 ], [ 144.926527609, -37.78045315 ], [ 144.926533559, -37.780460342 ], [ 144.926539592000012, -37.780467456 ], [ 144.926543455, -37.780474565 ], [ 144.926549486, -37.780481769 ], [ 144.926554394000021, -37.780488829 ], [ 144.926560334000015, -37.780496032 ], [ 144.926565332, -37.780503184 ], [ 144.92657023000001, -37.780510254 ], [ 144.926576180000012, -37.780517447 ], [ 144.926582213000017, -37.78052455 ], [ 144.926586238, -37.780531441 ], [ 144.926591723, -37.780539811 ], [ 144.926596496, -37.78054594 ], [ 144.926602234, -37.780553009 ], [ 144.92660599300001, -37.780561099 ], [ 144.926611827000016, -37.78056827 ], [ 144.926617565000015, -37.780575339 ], [ 144.926622298000012, -37.780582472 ], [ 144.92662711, -37.780589596 ], [ 144.926631916000019, -37.780595635 ], [ 144.926637707, -37.780603737 ], [ 144.92664262, -37.780610737 ], [ 144.926647457, -37.780617803 ], [ 144.92665241100002, -37.780625832 ], [ 144.926658355, -37.780631832 ], [ 144.92666333, -37.78063888 ], [ 144.926668195000019, -37.780646898 ], [ 144.926673169, -37.780653946 ], [ 144.92667908300001, -37.780660928 ], [ 144.926684067, -37.780667975 ], [ 144.926688953, -37.780675012 ], [ 144.926693839, -37.780681969 ], [ 144.926699841000016, -37.780689041 ], [ 144.927057719, -37.780617128 ], [ 144.927246598000011, -37.780792146 ], [ 144.927398553000018, -37.780931859 ], [ 144.927471672, -37.780998308 ], [ 144.927579178, -37.781100259 ], [ 144.927579336, -37.781099347 ], [ 144.927603870000013, -37.780960762 ], [ 144.927604969000015, -37.780960884 ], [ 144.927666398000014, -37.780968134 ], [ 144.927669612000017, -37.780948625 ], [ 144.927656461, -37.780947332 ], [ 144.927672784, -37.780847538 ], [ 144.927820881, -37.780863822 ], [ 144.927885612000011, -37.7808704 ], [ 144.927951463, -37.780876973 ], [ 144.928076784000012, -37.780890339 ], [ 144.928202968000022, -37.780902644 ], [ 144.928184122, -37.781020759 ], [ 144.92824915700001, -37.781026885 ], [ 144.928263250000015, -37.781099203 ], [ 144.92829878, -37.781118471 ], [ 144.928304212, -37.781082698 ], [ 144.928322487, -37.780965971 ], [ 144.928408247000021, -37.780974462 ], [ 144.928408386, -37.780973573 ], [ 144.928426705000021, -37.780856564 ], [ 144.928469098000022, -37.780860833 ], [ 144.928495315000021, -37.780863402 ], [ 144.928851611, -37.780898501 ], [ 144.929076368000011, -37.780948509 ], [ 144.929145745, -37.7809555 ], [ 144.92921512, -37.780962537 ], [ 144.929282564, -37.780969391 ], [ 144.929355405, -37.780976798 ], [ 144.929356531, -37.780976909 ], [ 144.929337478, -37.781067836 ], [ 144.929573147000013, -37.781092855 ], [ 144.92956444, -37.781149795 ], [ 144.929628358, -37.781156106 ], [ 144.929692269000014, -37.781162417 ], [ 144.929688583, -37.781195598 ], [ 144.929646692, -37.781454578 ], [ 144.929774401, -37.781468077 ], [ 144.9299359, -37.781483994 ], [ 144.930029405, -37.781493236 ], [ 144.930195579000014, -37.781509591 ], [ 144.930218377000017, -37.781511827 ], [ 144.930406009, -37.781530347 ], [ 144.930407167, -37.781530455 ], [ 144.930412875, -37.781494068 ], [ 144.930448285000011, -37.781268725 ], [ 144.930480683000013, -37.781062537 ], [ 144.930748902, -37.781089026 ], [ 144.930740657, -37.781135869 ], [ 144.930774838000019, -37.781303344 ], [ 144.931023564000014, -37.781330834 ], [ 144.931049189000021, -37.781356935 ], [ 144.931235252000022, -37.781359278 ], [ 144.931249684000022, -37.781269463 ], [ 144.931264124000023, -37.781179618 ], [ 144.931569534, -37.781210542 ], [ 144.931743003, -37.78122738 ], [ 144.931914692000021, -37.781243845 ], [ 144.932057031, -37.781257061 ], [ 144.932061357, -37.781230249 ], [ 144.932098898000021, -37.780984846 ], [ 144.932116896, -37.780890592 ], [ 144.932322445000011, -37.780915088 ], [ 144.932789154, -37.781482582 ], [ 144.93323541700002, -37.781985333 ], [ 144.933237529, -37.781987196 ], [ 144.933240601000023, -37.781990133 ], [ 144.933243607, -37.781993071 ], [ 144.933245577, -37.781996002 ], [ 144.933248610000021, -37.781997896 ], [ 144.933251616, -37.782000834 ], [ 144.933254557, -37.782002816 ], [ 144.933255583, -37.78200573 ], [ 144.933258521, -37.782007653 ], [ 144.933261505000019, -37.782010718 ], [ 144.933264499000018, -37.782013772 ], [ 144.933266548, -37.782016813 ], [ 144.933269482000014, -37.78201879 ], [ 144.933272476000013, -37.782021845 ], [ 144.933275499000018, -37.782023913 ], [ 144.933276424000013, -37.782026928 ], [ 144.933279407000015, -37.782029983 ], [ 144.933282441000017, -37.782031961 ], [ 144.933285425, -37.782035016 ], [ 144.933288459000011, -37.782036993 ], [ 144.933291352, -37.782040048 ], [ 144.933293402, -37.782043088 ], [ 144.933296385, -37.782046153 ], [ 144.933298385, -37.782048196 ], [ 144.933301318000019, -37.782050164 ], [ 144.933304312000018, -37.782053229 ], [ 144.93330729500002, -37.782056283 ], [ 144.933309255000012, -37.782059323 ], [ 144.933312279, -37.782061301 ], [ 144.933315312000019, -37.782063359 ], [ 144.93331829600001, -37.782066334 ], [ 144.933320296, -37.782068367 ], [ 144.933323239, -37.782072428 ], [ 144.933326172000022, -37.782074496 ], [ 144.933329206, -37.782076464 ], [ 144.9333322, -37.782079529 ], [ 144.933334189000021, -37.782081562 ], [ 144.933337172000023, -37.782084627 ], [ 144.933340167000011, -37.782087602 ], [ 144.933342166000017, -37.782089635 ], [ 144.933345099, -37.782091703 ], [ 144.933348092000017, -37.782094563 ], [ 144.933351094000017, -37.782097514 ], [ 144.933354126000012, -37.782099466 ], [ 144.933357130000019, -37.782102327 ], [ 144.93336007100001, -37.782104282 ], [ 144.933362067000019, -37.782106249 ], [ 144.933365069000018, -37.7821092 ], [ 144.933368073, -37.782112051 ], [ 144.93337110500002, -37.782114013 ], [ 144.933373938000017, -37.782116892 ], [ 144.933376721, -37.782118709 ], [ 144.933379515000013, -37.782121582 ], [ 144.933382372000011, -37.782123485 ], [ 144.933384183000015, -37.782126299 ], [ 144.933387050000022, -37.782128191 ], [ 144.933389844, -37.782131074 ], [ 144.933392714, -37.782132878 ], [ 144.933395421, -37.782135765 ], [ 144.933398278, -37.782137657 ], [ 144.933401148, -37.782139471 ], [ 144.933403942000012, -37.782142373 ], [ 144.933405751, -37.782145284 ], [ 144.933408608, -37.782147204 ], [ 144.933411382, -37.782149028 ], [ 144.933415181000015, -37.782151916 ], [ 144.93341795500001, -37.78215374 ], [ 144.933420758000011, -37.782156645 ], [ 144.933423616, -37.782158555 ], [ 144.933425492, -37.782160402 ], [ 144.933427418, -37.782161354 ], [ 144.933931238000014, -37.782529243 ], [ 144.934330168, -37.782785182 ], [ 144.937135961, -37.784108271 ], [ 144.937650953, -37.784336851 ], [ 144.938041326000018, -37.784653469 ], [ 144.938361511000011, -37.78502764 ], [ 144.939885375000017, -37.786961293 ], [ 144.939944994, -37.787037759 ], [ 144.94003471900001, -37.786983358 ], [ 144.940035603000013, -37.786982833 ], [ 144.940178915000018, -37.786895818 ], [ 144.940295805, -37.786777834 ], [ 144.940357869, -37.78662478 ], [ 144.940348849, -37.786447922 ], [ 144.940120856000021, -37.785954792 ], [ 144.939336829000013, -37.783701807 ], [ 144.939214541000013, -37.782778655 ], [ 144.938923796000012, -37.781436752 ], [ 144.937151857, -37.777962502 ], [ 144.937099236000023, -37.777855268 ], [ 144.937079434, -37.777786929 ], [ 144.936916002, -37.777388118 ], [ 144.93654182, -37.775909419 ], [ 144.936496509000023, -37.775728337 ], [ 144.93632983, -37.77428371 ], [ 144.93653160400001, -37.77390153 ], [ 144.936555373, -37.773852353 ], [ 144.936555464, -37.773852183 ], [ 144.936572988000023, -37.77381709 ], [ 144.938428956, -37.774384405 ], [ 144.938439023, -37.774386229 ], [ 144.93844806200002, -37.774389129 ], [ 144.938457093000011, -37.774390949 ], [ 144.938466037000012, -37.774392861 ], [ 144.938475074, -37.774395671 ], [ 144.938483091, -37.774397577 ], [ 144.938493154000014, -37.774400391 ], [ 144.938502188, -37.774402301 ], [ 144.938511229, -37.774404121 ], [ 144.938520258000011, -37.774407022 ], [ 144.938529252, -37.774408906 ], [ 144.938538343, -37.774410818 ], [ 144.938548380000015, -37.774412824 ], [ 144.938557473, -37.77441572 ], [ 144.938566567, -37.774417721 ], [ 144.938575669000016, -37.774419632 ], [ 144.938584762, -37.774421632 ], [ 144.938593774, -37.774423544 ], [ 144.938602867000014, -37.774425544 ], [ 144.938612995, -37.774428456 ], [ 144.938621054, -37.774430441 ], [ 144.938631096000023, -37.774432334 ], [ 144.938639147, -37.774434155 ], [ 144.938649276, -37.774436079 ], [ 144.938659303, -37.774437914 ], [ 144.938667357000014, -37.774440805 ], [ 144.938677474, -37.77444264 ], [ 144.938685544, -37.774443479 ], [ 144.93869556300001, -37.774446374 ], [ 144.938704657000017, -37.774448203 ], [ 144.938713651, -37.77444914 ], [ 144.938723706000019, -37.774451968 ], [ 144.938731549000011, -37.774453922 ], [ 144.938741389, -37.774455811 ], [ 144.938750147, -37.774457689 ], [ 144.938758993000022, -37.774458673 ], [ 144.938767830000018, -37.774461532 ], [ 144.938777746, -37.774462401 ], [ 144.938786838, -37.774464317 ], [ 144.938795838, -37.774466146 ], [ 144.938805971000022, -37.77446807 ], [ 144.93881403, -37.77446989 ], [ 144.93882407000001, -37.774471726 ], [ 144.938834077, -37.774473678 ], [ 144.938842119000014, -37.774475528 ], [ 144.938852105, -37.774476501 ], [ 144.93886117400001, -37.774478361 ], [ 144.93887014400002, -37.774480223 ], [ 144.938879216, -37.774482173 ], [ 144.938889214, -37.774484045 ], [ 144.938898276, -37.774485995 ], [ 144.938907341, -37.774486876 ], [ 144.93891733800001, -37.774488739 ], [ 144.938925141, -37.774490888 ], [ 144.938934827, -37.774492034 ], [ 144.938943626, -37.774494126 ], [ 144.938953317, -37.77449537 ], [ 144.938962127, -37.774498437 ], [ 144.938970819000019, -37.774499554 ], [ 144.938980607000019, -37.774501764 ], [ 144.938988391, -37.774502854 ], [ 144.93899809200002, -37.774505062 ], [ 144.939006819000014, -37.774506145 ], [ 144.939016550000019, -37.774508267 ], [ 144.939025048000019, -37.774509466 ], [ 144.939033644, -37.774512713 ], [ 144.939043116000022, -37.774513949 ], [ 144.939051703000018, -37.774516218 ], [ 144.939061175, -37.774517464 ], [ 144.939068794, -37.774519597 ], [ 144.939078269000021, -37.774520922 ], [ 144.939001721000011, -37.774941029 ], [ 144.938945078000017, -37.77547392 ], [ 144.939057496, -37.775487469 ], [ 144.939171806000019, -37.775502217 ], [ 144.943620855, -37.776039642 ], [ 144.945136347000016, -37.776222839 ], [ 144.948300371000016, -37.776604914 ], [ 144.949496998, -37.776749397 ], [ 144.949541758, -37.776754806 ], [ 144.949652381000021, -37.776768183 ], [ 144.949762358000015, -37.776781472 ], [ 144.960094459, -37.778029246 ], [ 144.960095581000019, -37.778029367 ], [ 144.960205934000015, -37.77804263 ], [ 144.960316151, -37.77805589 ], [ 144.960318331, -37.77805616 ], [ 144.961362544, -37.77818213 ], [ 144.961472827000023, -37.778195467 ], [ 144.961556616, -37.77825451 ], [ 144.961629146, -37.77830553 ], [ 144.962072351000018, -37.778617231 ], [ 144.962133609, -37.778661816 ], [ 144.962205009, -37.778718217 ], [ 144.962273127, -37.778777133 ], [ 144.962337837, -37.778838413 ], [ 144.962399005, -37.778901949 ], [ 144.962456476, -37.778967586 ], [ 144.962509603, -37.779035219 ], [ 144.962559956, -37.779104337 ], [ 144.962606769000018, -37.779175058 ], [ 144.96264857, -37.779247703 ], [ 144.962686068000011, -37.779321789 ], [ 144.962719267000011, -37.779397205 ], [ 144.96274806400001, -37.779473876 ], [ 144.96277244800001, -37.779551673 ], [ 144.962792358, -37.779630785 ], [ 144.962807991, -37.779709854 ], [ 144.962819237000019, -37.779789328 ], [ 144.962828527, -37.779857879 ], [ 144.962834778, -37.77993561 ], [ 144.962836491000019, -37.780013481 ], [ 144.96283367, -37.78009134 ], [ 144.962826337, -37.780169009 ], [ 144.962772708000017, -37.780754462 ], [ 144.962771241000013, -37.780793581 ], [ 144.962771664, -37.78087226 ], [ 144.96277665, -37.78095085 ], [ 144.962786185, -37.781028925 ], [ 144.962800260000023, -37.781106526 ], [ 144.962818664, -37.781184338 ], [ 144.962841578, -37.78126093 ], [ 144.962868898000011, -37.78133657 ], [ 144.962900547, -37.78141114 ], [ 144.962936466, -37.781484481 ], [ 144.962976575, -37.781556432 ], [ 144.963020703000012, -37.781626752 ], [ 144.963068787, -37.781695364 ], [ 144.963121054, -37.781762435 ], [ 144.963177103000021, -37.781827461 ], [ 144.963236766000023, -37.781890326 ], [ 144.963299917, -37.781950954 ], [ 144.96336641900001, -37.782009248 ], [ 144.963436155000011, -37.782065138 ], [ 144.963509030000012, -37.782118481 ], [ 144.963585154000015, -37.782169007 ], [ 144.963664182, -37.782216629 ], [ 144.963745802, -37.782261385 ], [ 144.963829898, -37.782303158 ], [ 144.963916245, -37.782341879 ], [ 144.964005348, -37.782376149 ], [ 144.963986203000019, -37.782505632 ], [ 144.96361782, -37.784806281 ], [ 144.96359260700001, -37.784967754 ], [ 144.963586632000016, -37.785004782 ], [ 144.966273223, -37.785283922 ], [ 144.966408384, -37.785297454 ], [ 144.96641258, -37.78529779 ], [ 144.969361907, -37.785603701 ], [ 144.969516937, -37.785618768 ], [ 144.969532116000011, -37.785529283 ], [ 144.969734669000019, -37.784333043 ], [ 144.970144083, -37.781725659 ], [ 144.970524419000014, -37.779287922 ], [ 144.970553508000023, -37.779156465 ], [ 144.97066632100001, -37.779170708 ], [ 144.970667352000021, -37.77917084 ], [ 144.970667960000014, -37.779170911 ], [ 144.970669063, -37.779171053 ], [ 144.97073261700001, -37.779179073 ], [ 144.972221054000016, -37.779361206 ], [ 144.972755603, -37.779426612 ], [ 144.97458716600002, -37.779639983 ], [ 144.974827977000018, -37.779671383 ], [ 144.977967650000011, -37.780047534 ], [ 144.978026832000012, -37.780057501 ], [ 144.978027103000016, -37.780057541 ], [ 144.978134552, -37.780073017 ], [ 144.978118508000023, -37.780161805 ], [ 144.978110284, -37.780207161 ], [ 144.977658741, -37.782645899 ], [ 144.977203409, -37.785151084 ], [ 144.97641907900001, -37.789300935 ], [ 144.976245364000022, -37.790233581 ], [ 144.97597543, -37.791655245 ], [ 144.975739804, -37.792913339 ], [ 144.975715689, -37.793047412 ], [ 144.975700814000021, -37.793135292 ], [ 144.975700564000022, -37.793136665 ], [ 144.975312837000018, -37.795430521 ], [ 144.974878055, -37.797942043 ], [ 144.974327183000014, -37.801214439 ], [ 144.974007828, -37.803110351 ], [ 144.973203250000012, -37.807833713 ], [ 144.973188149, -37.807922846 ], [ 144.973298666, -37.807934547 ], [ 144.973300436000017, -37.807934727 ], [ 144.982440457, -37.808909656 ], [ 144.982442107, -37.808909837 ], [ 144.982552958000014, -37.808921656 ], [ 144.982663839, -37.808933618 ], [ 144.982665599, -37.808933798 ], [ 144.991218018000012, -37.809845044 ], [ 144.991330620000014, -37.80985698 ], [ 144.99131516, -37.80994478 ], [ 144.99131491, -37.80994621 ], [ 144.990092363, -37.816889071 ], [ 144.990022386000021, -37.817286409 ], [ 144.990007717, -37.817698812 ], [ 144.989723534, -37.819385212 ], [ 144.989111751, -37.823028822 ], [ 144.989111511, -37.823030262 ], [ 144.989096754, -37.823118128 ], [ 144.989081743000014, -37.823205474 ], [ 144.989081533000018, -37.823206713 ], [ 144.989049560000012, -37.82343007 ], [ 144.988859385000012, -37.824533896 ], [ 144.988859175000016, -37.824535175 ], [ 144.98884433, -37.824623887 ], [ 144.988824463000014, -37.824621792 ], [ 144.988809532, -37.824709853 ], [ 144.988809432000011, -37.824710443 ], [ 144.988332274000015, -37.827507388 ], [ 144.988069594, -37.828885039 ], [ 144.987991557000015, -37.829250711 ], [ 144.98792516200001, -37.829617415 ], [ 144.988029198000021, -37.829693487 ], [ 144.988030037000016, -37.82969414 ], [ 144.988386029, -37.82996549 ], [ 144.988603092, -37.830171963 ], [ 144.988828524000013, -37.830405611 ], [ 144.989077319000017, -37.83065768 ], [ 144.989406829000018, -37.830992238 ], [ 144.989610402000011, -37.831193971 ], [ 144.989683929000023, -37.831289842 ], [ 144.989864066, -37.831518211 ], [ 144.990044189, -37.8317466 ], [ 144.990070354000011, -37.831787597 ], [ 144.990143244, -37.831865432 ], [ 144.990254936000014, -37.832020547 ], [ 144.99034261700001, -37.832139197 ], [ 144.990399217, -37.832230288 ], [ 144.990448618000016, -37.832334766 ], [ 144.990490971000014, -37.832407567 ], [ 144.990579765, -37.832526248 ], [ 144.990640396, -37.832594869 ], [ 144.990715437, -37.83267726 ], [ 144.990751929, -37.83271842 ], [ 144.990917326000016, -37.832900031 ], [ 144.991142716000013, -37.833051862 ], [ 144.991202139, -37.833082073 ], [ 144.99137291400001, -37.833152583 ], [ 144.991485642000015, -37.833186043 ], [ 144.991658427, -37.833225044 ], [ 144.991855422000015, -37.833250924 ], [ 144.992075275000019, -37.833272695 ], [ 144.992277076000022, -37.833289664 ], [ 144.992501423000022, -37.833311504 ], [ 144.992737284000015, -37.833329043 ], [ 144.992996729, -37.833355984 ], [ 144.993042133000017, -37.833356724 ], [ 144.993113538000017, -37.833362452 ], [ 144.993185982, -37.83337269 ], [ 144.99327219, -37.83337868 ], [ 144.993436073, -37.833408361 ], [ 144.993580743, -37.833437879 ], [ 144.993745708, -37.833472257 ], [ 144.993934421, -37.833511544 ], [ 144.994344417, -37.833604207 ], [ 144.994536034000021, -37.833661553 ], [ 144.99473637600002, -37.833732568 ], [ 144.994964713, -37.833817574 ], [ 144.995219118000023, -37.833907582 ], [ 144.995457705, -37.833992733 ], [ 144.995664715, -37.834068349 ], [ 144.995921156, -37.834162795 ], [ 144.996152787, -37.834247799 ], [ 144.996469082, -37.834316295 ], [ 144.99647739400001, -37.834317075 ], [ 144.996478464, -37.834317175 ], [ 144.996590873, -37.834327702 ], [ 144.996700853000021, -37.834337995 ], [ 144.996701363, -37.834338045 ], [ 144.996704773, -37.834338365 ], [ 144.996721799, -37.834338645 ], [ 144.996833367000022, -37.834331565 ], [ 144.996911983000018, -37.834323892 ], [ 144.997124241000023, -37.834291501 ], [ 144.997398313000019, -37.834242112 ], [ 144.9978427, -37.834155064 ], [ 144.99812368100001, -37.834101277 ], [ 144.998356731, -37.834055653 ], [ 144.99851659700002, -37.834026803 ], [ 144.998787259000011, -37.833977283 ], [ 144.999054303, -37.83393685 ], [ 144.999299492, -37.833904957 ], [ 144.999364429, -37.83389808 ], [ 144.999594356000017, -37.833873695 ], [ 144.999821157000014, -37.833815249 ], [ 145.000011052000019, -37.833768393 ], [ 145.000202152000014, -37.833717508 ], [ 145.00037458, -37.83364382 ], [ 145.000587997, -37.833570787 ], [ 145.000795868000012, -37.833529413 ], [ 145.000958389, -37.83352772 ], [ 145.001149740000017, -37.833553472 ], [ 145.001267378000023, -37.833573478 ], [ 145.001408612, -37.833602907 ], [ 145.001727439, -37.833702963 ], [ 145.001990241000016, -37.833775014 ], [ 145.002224386000023, -37.833855606 ], [ 145.002468180000022, -37.833958862 ], [ 145.002697103, -37.834106947 ], [ 145.002851185, -37.834249312 ], [ 145.002968836, -37.834395456 ], [ 145.003207997, -37.834503061 ], [ 145.003296106000022, -37.83452256 ], [ 145.003458659000017, -37.834520785 ], [ 145.003798932, -37.834458904 ], [ 145.004044384, -37.834332359 ], [ 145.004186388000022, -37.834163597 ], [ 145.004257389, -37.833889982 ], [ 145.004269396000012, -37.833655887 ], [ 145.004262641, -37.833484544 ], [ 145.00423105500002, -37.83330828 ], [ 145.0041789, -37.833136136 ], [ 145.00409971800002, -37.832954525 ], [ 145.004043753000019, -37.832755317 ], [ 145.003969004, -37.832502139 ], [ 145.00391233900001, -37.832370562 ], [ 145.00387117, -37.832252679 ], [ 145.003845435000017, -37.832112635 ], [ 145.003820147, -37.831954482 ], [ 145.003805422, -37.831868589 ], [ 145.003799746, -37.831782831 ], [ 145.003803584, -37.831679023 ], [ 145.00384892, -37.83155344 ], [ 145.00395880100001, -37.831442907 ], [ 145.004072105, -37.831372856 ], [ 145.004266825, -37.831272551 ], [ 145.004404644, -37.831216198 ], [ 145.004547484, -37.831187141 ], [ 145.004726136000016, -37.831176711 ], [ 145.004898869000016, -37.831175107 ], [ 145.005115408000023, -37.831192312 ], [ 145.005261174, -37.831221917 ], [ 145.00545657, -37.831265832 ], [ 145.005622414000015, -37.831309191 ], [ 145.005786910000012, -37.831361572 ], [ 145.00601647000002, -37.831442037 ], [ 145.00605090000002, -37.831455323 ], [ 145.00605485, -37.831456842 ], [ 145.006158246000012, -37.831496734 ], [ 145.006199787000014, -37.831512763 ], [ 145.006221193000016, -37.831519162 ], [ 145.006261233, -37.83153077 ], [ 145.006329301000022, -37.831550499 ], [ 145.006329711, -37.831550619 ], [ 145.006435277, -37.831581281 ], [ 145.006372674, -37.832017341 ], [ 145.006110882, -37.833299306 ], [ 145.006084553000022, -37.833431595 ], [ 145.005877229000021, -37.834522141 ], [ 145.00572521700002, -37.835333144 ], [ 145.005418456, -37.836827589 ], [ 145.005240555, -37.837725437 ], [ 145.00507771300002, -37.838559264 ], [ 145.005068147, -37.838636742 ], [ 145.004934137000021, -37.839340518 ], [ 145.004715772, -37.840501245 ], [ 145.004693831, -37.840588661 ], [ 145.004673714, -37.840675754 ], [ 145.004546017, -37.841319152 ], [ 145.004521361, -37.841442415 ], [ 145.004467128000016, -37.841716379 ], [ 145.004318658000017, -37.842491964 ], [ 145.004218653, -37.843014416 ], [ 145.004079657, -37.843728552 ], [ 145.004023091000022, -37.844013792 ], [ 145.003921424, -37.84451856 ], [ 145.003872641000015, -37.844780737 ], [ 145.00378179400002, -37.845216139 ], [ 145.00375857100002, -37.845320246 ], [ 145.003749528000014, -37.845364353 ], [ 145.003740528, -37.84540647 ], [ 145.003700504000022, -37.845617406 ], [ 145.003574486000019, -37.846193523 ], [ 145.003487831, -37.846661978 ], [ 145.003388818000019, -37.847134251 ], [ 145.003289589000019, -37.847613072 ], [ 145.003196060000022, -37.848085154 ], [ 145.003193934, -37.84809914 ], [ 145.002421587000015, -37.847996426 ], [ 145.001771584000011, -37.847910294 ], [ 145.00121783900002, -37.847835137 ], [ 145.000453558, -37.847732651 ], [ 144.999397252000023, -37.847586309 ], [ 144.998659603000021, -37.847487622 ], [ 144.99792545, -37.84738059 ], [ 144.996738892, -37.847219345 ], [ 144.995000724000022, -37.846982375 ], [ 144.994759609, -37.84694825 ], [ 144.994602416000021, -37.846926337 ], [ 144.99413131, -37.846866434 ], [ 144.993672375000017, -37.84680694 ], [ 144.993277614000021, -37.846754785 ], [ 144.992988202000021, -37.846714875 ], [ 144.992355370000013, -37.84663125 ], [ 144.991480879000022, -37.846519595 ], [ 144.990669256000018, -37.846414291 ], [ 144.99048070500001, -37.846389262 ], [ 144.990472661000013, -37.846388329 ], [ 144.990075390000015, -37.846338363 ], [ 144.989596529000011, -37.846278173 ], [ 144.989380430000011, -37.846252585 ], [ 144.988772938000011, -37.846174548 ], [ 144.988567365000023, -37.846147367 ], [ 144.988178671000014, -37.84609299 ], [ 144.988033732000019, -37.846074386 ], [ 144.987730656, -37.846039651 ], [ 144.987237671, -37.845968165 ], [ 144.985130239, -37.845702237 ], [ 144.985022921, -37.845687385 ], [ 144.985007223, -37.845776249 ], [ 144.985007193, -37.845776429 ], [ 144.984547272000015, -37.848480935 ], [ 144.984223551000014, -37.850539964 ], [ 144.984216904000021, -37.850577886 ], [ 144.984216883000016, -37.850578006 ], [ 144.9842013, -37.850667379 ], [ 144.984091155000016, -37.850653155 ], [ 144.984089145000013, -37.850652895 ], [ 144.982349683, -37.850429231 ], [ 144.982330047, -37.850520347 ], [ 144.982206796000014, -37.851140578 ], [ 144.98216534300002, -37.851135208 ], [ 144.982209622, -37.851256052 ], [ 144.981841244, -37.851340913 ], [ 144.981874724000022, -37.851432483 ], [ 144.982022699, -37.851823232 ], [ 144.982345337, -37.851863234 ], [ 144.982204691000021, -37.85256517 ], [ 144.982531121000022, -37.852617144 ], [ 144.982708318000022, -37.85306754 ], [ 144.982731782, -37.853311405 ], [ 144.982731766, -37.853312377 ], [ 144.982684275, -37.853436148 ], [ 144.982633541000013, -37.853691844 ], [ 144.982666489, -37.853695825 ], [ 144.982712282000023, -37.853702819 ], [ 144.982643629000023, -37.85401332 ], [ 144.982869926, -37.854040744 ], [ 144.982860622, -37.854096786 ], [ 144.982837552, -37.854228458 ], [ 144.982852595, -37.854230427 ], [ 144.982836674, -37.85434539 ], [ 144.982836584000012, -37.85434661 ], [ 144.982958615, -37.854362936 ], [ 144.982948835, -37.854411338 ], [ 144.98293949, -37.854460482 ], [ 144.982929823, -37.854508279 ], [ 144.98292046200001, -37.854557691 ], [ 144.982911516, -37.854608163 ], [ 144.982204755, -37.854514125 ], [ 144.982572087000023, -37.855526441 ], [ 144.982175073, -37.855487916 ], [ 144.982164137000012, -37.855484903 ], [ 144.982154068, -37.855481966 ], [ 144.982143061000016, -37.855479004 ], [ 144.982134027, -37.855476066 ], [ 144.982123011, -37.855473013 ], [ 144.98211294, -37.855470058 ], [ 144.982101794000016, -37.855468147 ], [ 144.982091832, -37.855465103 ], [ 144.982080554000021, -37.855462211 ], [ 144.982070782000022, -37.855459167 ], [ 144.982059786, -37.855456195 ], [ 144.982048710000015, -37.855453133 ], [ 144.982038747000018, -37.855450179 ], [ 144.982028571, -37.855447205 ], [ 144.982018620000019, -37.855444155 ], [ 144.98200763600002, -37.855441177 ], [ 144.981997594, -37.855438208 ], [ 144.981986620000015, -37.85543514 ], [ 144.981976578, -37.855432171 ], [ 144.981966626, -37.855429212 ], [ 144.981956585, -37.855426153 ], [ 144.981945600000017, -37.855423175 ], [ 144.981935558, -37.855420216 ], [ 144.981924584000012, -37.855417149 ], [ 144.981914608000011, -37.855412191 ], [ 144.981904626000016, -37.855410227 ], [ 144.98189355, -37.85540715 ], [ 144.981883597, -37.855404192 ], [ 144.981872521000014, -37.855401215 ], [ 144.981863602, -37.855398175 ], [ 144.981852564, -37.855394204 ], [ 144.981842528000016, -37.855391234 ], [ 144.981832589000021, -37.855388183 ], [ 144.981822558, -37.855385213 ], [ 144.981811616000016, -37.855381155 ], [ 144.98180155, -37.855378219 ], [ 144.981791584, -37.855375272 ], [ 144.981780510000021, -37.855371237 ], [ 144.981770479, -37.855367299 ], [ 144.981760478000012, -37.855365353 ], [ 144.981750412, -37.855362327 ], [ 144.981739438, -37.855358371 ], [ 144.981730406, -37.855355362 ], [ 144.981719396000017, -37.855352398 ], [ 144.981709365, -37.85534847 ], [ 144.9816993, -37.855345433 ], [ 144.981689259, -37.855341505 ], [ 144.981678259, -37.855338461 ], [ 144.981668219, -37.855334523 ], [ 144.981658253, -37.855331586 ], [ 144.981648223, -37.855327558 ], [ 144.981638156, -37.855324622 ], [ 144.981628181000019, -37.855321585 ], [ 144.98161815, -37.855317657 ], [ 144.981607075, -37.855313702 ], [ 144.981598044, -37.855310682 ], [ 144.981587104, -37.855305746 ], [ 144.981577039, -37.855302719 ], [ 144.981566973000014, -37.855299772 ], [ 144.981557033, -37.855295754 ], [ 144.981546967000014, -37.855292808 ], [ 144.981536936, -37.855288789 ], [ 144.98152690500001, -37.855284851 ], [ 144.98151693, -37.855281825 ], [ 144.98150689900001, -37.855277887 ], [ 144.981496869000011, -37.855273859 ], [ 144.981486803, -37.855270922 ], [ 144.981476862000022, -37.855266994 ], [ 144.981466822000016, -37.855262966 ], [ 144.981456791, -37.855259028 ], [ 144.981446761, -37.85525501 ], [ 144.981436694, -37.855252063 ], [ 144.981426664, -37.855248045 ], [ 144.981416724000013, -37.855244107 ], [ 144.981406687, -37.855240086 ], [ 144.981396685000021, -37.855236128 ], [ 144.981386651, -37.85523307 ], [ 144.981376649, -37.855229122 ], [ 144.981367678, -37.855225094 ], [ 144.981356736, -37.855221127 ], [ 144.981347697000018, -37.855216109 ], [ 144.98133775300002, -37.85521314 ], [ 144.981327751, -37.855209101 ], [ 144.981317749, -37.855205141 ], [ 144.981307717000021, -37.855202091 ], [ 144.981297739000013, -37.855197141 ], [ 144.981287736000013, -37.855193095 ], [ 144.981278763, -37.855189169 ], [ 144.981268817, -37.855186113 ], [ 144.98125875, -37.855181164 ], [ 144.98124884, -37.855177124 ], [ 144.981239778, -37.855173096 ], [ 144.981229764, -37.855169142 ], [ 144.98121881900002, -37.855165177 ], [ 144.98120984900001, -37.855161147 ], [ 144.981199849, -37.855157108 ], [ 144.981190878, -37.85515317 ], [ 144.981180899, -37.855148133 ], [ 144.981171894, -37.855145196 ], [ 144.981160891, -37.855140144 ], [ 144.981150876000015, -37.855136201 ], [ 144.981141851000018, -37.855132185 ], [ 144.981130736000011, -37.855128224 ], [ 144.981120658, -37.855124202 ], [ 144.98111057, -37.85512026 ], [ 144.981100592000018, -37.855116238 ], [ 144.981090475, -37.855113285 ], [ 144.981080426, -37.855108274 ], [ 144.981069312000017, -37.855104313 ], [ 144.981059223000017, -37.855100291 ], [ 144.981049236000018, -37.855096349 ], [ 144.981039158000016, -37.855092327 ], [ 144.981029080000013, -37.855088384 ], [ 144.981019001000021, -37.855084442 ], [ 144.981008942000017, -37.855079431 ], [ 144.980998864000014, -37.855075399 ], [ 144.980989848, -37.855071484 ], [ 144.980978832, -37.855066444 ], [ 144.980969834, -37.855063521 ], [ 144.980958813, -37.855058492 ], [ 144.980948815, -37.855053568 ], [ 144.980939839, -37.855049596 ], [ 144.980929819000011, -37.855045659 ], [ 144.980919803, -37.855041669 ], [ 144.980900839000014, -37.855031778 ], [ 144.980889749, -37.855027743 ], [ 144.980879714, -37.855022807 ], [ 144.980870711000023, -37.855018791 ], [ 144.980860650000011, -37.855013865 ], [ 144.9808515, -37.855009854 ], [ 144.980841438, -37.855004838 ], [ 144.980831344, -37.855000907 ], [ 144.980821283000012, -37.854995891 ], [ 144.980812252000021, -37.854990893 ], [ 144.980802173, -37.854985939 ], [ 144.980783132, -37.854977024 ], [ 144.980773092000021, -37.854972018 ], [ 144.980763992000021, -37.854967032 ], [ 144.980754031, -37.854963109 ], [ 144.980744941000012, -37.854958123 ], [ 144.980734901, -37.854953118 ], [ 144.980724871, -37.854948201 ], [ 144.980715772, -37.854943215 ], [ 144.980705732000018, -37.85493822 ], [ 144.980697686000013, -37.85493323 ], [ 144.980687703, -37.854928286 ], [ 144.980677707000012, -37.854923286 ], [ 144.980668724, -37.854918312 ], [ 144.980658623000011, -37.854913408 ], [ 144.980650678000018, -37.854908453 ], [ 144.980640577, -37.85490346 ], [ 144.980631604, -37.854898485 ], [ 144.980621593, -37.854893591 ], [ 144.980612542000017, -37.854887635 ], [ 144.980603558000013, -37.854882661 ], [ 144.98059449500002, -37.854877687 ], [ 144.980575486000021, -37.854866735 ], [ 144.980566518000018, -37.854862698 ], [ 144.980557469000019, -37.854856741 ], [ 144.980548489, -37.854851851 ], [ 144.980539419, -37.854846873 ], [ 144.98053037, -37.854840916 ], [ 144.980520393, -37.854834937 ], [ 144.98051235, -37.854829981 ], [ 144.980502364000017, -37.854824091 ], [ 144.980494321, -37.854819134 ], [ 144.980485251, -37.854814156 ], [ 144.980475274000014, -37.854808177 ], [ 144.980458229000021, -37.854797188 ], [ 144.980449276, -37.854792229 ], [ 144.980440253000012, -37.854786185 ], [ 144.980431314000015, -37.8547811 ], [ 144.98042325900002, -37.854773989 ], [ 144.980413298, -37.854768933 ], [ 144.980405358000013, -37.854762765 ], [ 144.980396323, -37.854757726 ], [ 144.980387471, -37.854751561 ], [ 144.980379497, -37.85474554 ], [ 144.980370517000011, -37.854739486 ], [ 144.980362603, -37.85473446 ], [ 144.980353706000017, -37.854728328 ], [ 144.980344809, -37.854722195 ], [ 144.980336931000011, -37.854716093 ], [ 144.980328132000011, -37.854709961 ], [ 144.980319235, -37.854703829 ], [ 144.980311322, -37.854698712 ], [ 144.980302425000019, -37.85469258 ], [ 144.980285650000013, -37.854680345 ], [ 144.980276683, -37.85467428 ], [ 144.980269712000023, -37.854668308 ], [ 144.980260683000012, -37.854662303 ], [ 144.980252692000022, -37.854656309 ], [ 144.98024369, -37.854649305 ], [ 144.980235695, -37.854643306 ], [ 144.980227694, -37.854637323 ], [ 144.980218666000013, -37.854631317 ], [ 144.980210676000013, -37.854625314 ], [ 144.980202685000023, -37.85461932 ], [ 144.980194692, -37.854613329 ], [ 144.980185663000015, -37.854607316 ], [ 144.980177664, -37.854601333 ], [ 144.980169612, -37.854594351 ], [ 144.980161623000015, -37.854588347 ], [ 144.980153633000015, -37.854582353 ], [ 144.980145644, -37.854576259 ], [ 144.980137673, -37.854569277 ], [ 144.980129681000022, -37.854563286 ], [ 144.980113621000015, -37.854550318 ], [ 144.980105634000012, -37.854544312 ], [ 144.980097674, -37.854537328 ], [ 144.980089685, -37.854531334 ], [ 144.980081622, -37.854524351 ], [ 144.980073634, -37.854518272 ], [ 144.980066607, -37.854511303 ], [ 144.980058620000023, -37.854505313 ], [ 144.980050659, -37.854498327 ], [ 144.980034617, -37.854485349 ], [ 144.980027654, -37.854479291 ], [ 144.980019592000019, -37.854472303 ], [ 144.980011602000019, -37.854466313 ], [ 144.980004667, -37.854459347 ], [ 144.979996606000014, -37.854452359 ], [ 144.979989585, -37.854445311 ], [ 144.979982654, -37.854438345 ], [ 144.979974669, -37.854432356 ], [ 144.979966593, -37.854425379 ], [ 144.979959619, -37.854419318 ], [ 144.979951569, -37.854412338 ], [ 144.979944628, -37.854405369 ], [ 144.979937606000021, -37.854398401 ], [ 144.979929646000016, -37.854391331 ], [ 144.979922542, -37.854383374 ], [ 144.979915564, -37.854378382 ], [ 144.979907595000014, -37.854371402 ], [ 144.979900573, -37.854364344 ], [ 144.979893541, -37.854357375 ], [ 144.979886609, -37.854350327 ], [ 144.979878581, -37.854343311 ], [ 144.979872566000012, -37.854336353 ], [ 144.97986459400002, -37.85432936 ], [ 144.979850522000021, -37.854315308 ], [ 144.979843581000011, -37.854308326 ], [ 144.97982952800001, -37.854294305 ], [ 144.979822597, -37.854287246 ], [ 144.979815566000013, -37.854280277 ], [ 144.979808536, -37.854273319 ], [ 144.97980257, -37.854265283 ], [ 144.97979554, -37.854258324 ], [ 144.979787581000011, -37.854251334 ], [ 144.979781588, -37.854244296 ], [ 144.979774485, -37.854236339 ], [ 144.979767535, -37.854230276 ], [ 144.97976052300001, -37.854222305 ], [ 144.979754512, -37.854215254 ], [ 144.979747481, -37.854208271 ], [ 144.979740533000012, -37.854201288 ], [ 144.97973446200001, -37.854193247 ], [ 144.979728462, -37.854186197 ], [ 144.979721432000019, -37.854179216 ], [ 144.979715457, -37.854171186 ], [ 144.979708429, -37.854164215 ], [ 144.979701501000022, -37.854157244 ], [ 144.979695438000022, -37.854149215 ], [ 144.979682447000016, -37.854134215 ], [ 144.979676457000011, -37.854127176 ], [ 144.979670456, -37.854120226 ], [ 144.979664483000022, -37.854112197 ], [ 144.979657483000011, -37.854104237 ], [ 144.97965149, -37.854097191 ], [ 144.979645422, -37.854089236 ], [ 144.979639477, -37.854082133 ], [ 144.97963242, -37.854074131 ], [ 144.979626369000016, -37.854067055 ], [ 144.979621359000021, -37.854060001 ], [ 144.979614302000016, -37.854051999 ], [ 144.979608234000011, -37.854043955 ], [ 144.979603271, -37.854036934 ], [ 144.9795963, -37.854027984 ], [ 144.97959030200002, -37.854020944 ], [ 144.97958424, -37.854013004 ], [ 144.979579278000017, -37.854005983 ], [ 144.979573216, -37.853997943 ], [ 144.979567271, -37.853989013 ], [ 144.979561256000011, -37.853982963 ], [ 144.97955622, -37.853974952 ], [ 144.979551239000017, -37.853968 ], [ 144.979550236000023, -37.853966994 ], [ 144.97954423500002, -37.85395891 ], [ 144.979538219, -37.853951831 ], [ 144.979533156, -37.853943869 ], [ 144.979527159000014, -37.853935796 ], [ 144.979521118, -37.853926716 ], [ 144.979515099, -37.853920729 ], [ 144.979511101000014, -37.853911693 ], [ 144.979505108000012, -37.853904612 ], [ 144.979499044000022, -37.853896565 ], [ 144.979494096, -37.853888636 ], [ 144.979489059, -37.853880617 ], [ 144.979483069, -37.853873572 ], [ 144.979478118, -37.853864752 ], [ 144.979472057, -37.853857596 ], [ 144.979468072, -37.853848594 ], [ 144.979462082, -37.853841548 ], [ 144.979457060000016, -37.853832528 ], [ 144.97945107000001, -37.853825572 ], [ 144.979446803, -37.853816526 ], [ 144.979441461000022, -37.853809678 ], [ 144.97943495200002, -37.853800761 ], [ 144.979429478000014, -37.853791849 ], [ 144.979424280000018, -37.853784873 ], [ 144.979420257000015, -37.853776852 ], [ 144.979414280000015, -37.85376988 ], [ 144.979409251000021, -37.853760856 ], [ 144.979404222, -37.853752813 ], [ 144.979400200000015, -37.853744792 ], [ 144.979395161000014, -37.85373676 ], [ 144.97939021000002, -37.853728727 ], [ 144.979385171000018, -37.853720685 ], [ 144.979380132000017, -37.853712652 ], [ 144.97937613000002, -37.85370364 ], [ 144.97937115000002, -37.853695669 ], [ 144.979366291000019, -37.853687606 ], [ 144.979362624, -37.853679688 ], [ 144.978938588, -37.852453303 ], [ 144.978348821, -37.850744205 ], [ 144.977991664, -37.849643738 ], [ 144.977951039, -37.849520715 ], [ 144.977104967, -37.849478007 ], [ 144.977079972000013, -37.849477034 ], [ 144.977032001, -37.849472959 ], [ 144.976985986000017, -37.849465963 ], [ 144.97695202700001, -37.84945699 ], [ 144.976940027000012, -37.84945399 ], [ 144.976894952, -37.84943997 ], [ 144.976851961000023, -37.849422026 ], [ 144.976812008, -37.849401015 ], [ 144.976775155000013, -37.8493781 ], [ 144.976560648, -37.849222524 ], [ 144.975322877, -37.848398232 ], [ 144.975308857000016, -37.848388237 ], [ 144.975245764000022, -37.848347131 ], [ 144.975178113, -37.848308719 ], [ 144.975109781000015, -37.848272468 ], [ 144.975038484, -37.848240318 ], [ 144.974965542, -37.84821028 ], [ 144.97489048700001, -37.848185267 ], [ 144.974813675, -37.848163249 ], [ 144.974736176000022, -37.848143132 ], [ 144.974657477000022, -37.848127826 ], [ 144.974576314000018, -37.848114954 ], [ 144.97449536000002, -37.848105865 ], [ 144.974390608000022, -37.848101873 ], [ 144.974258909000014, -37.848099821 ], [ 144.974126172000013, -37.848101836 ], [ 144.973995089, -37.848107784 ], [ 144.973912042, -37.848110975 ], [ 144.973829973000022, -37.84811104 ], [ 144.973746181, -37.848108067 ], [ 144.973664194, -37.848101189 ], [ 144.973583166, -37.848090269 ], [ 144.973501162000019, -37.848076427 ], [ 144.973422015000011, -37.848058479 ], [ 144.973342962, -37.848038531 ], [ 144.973265810000015, -37.848013562 ], [ 144.97319056, -37.847985619 ], [ 144.97311735, -37.847954652 ], [ 144.973047103, -37.847920649 ], [ 144.972977812000011, -37.847883542 ], [ 144.972911772, -37.847843541 ], [ 144.972848745000022, -37.847800554 ], [ 144.972824792000011, -37.84778257 ], [ 144.972218834000017, -37.84736258 ], [ 144.972217838, -37.847361572 ], [ 144.97210191100001, -37.847283533 ], [ 144.971981813000014, -37.847198579 ], [ 144.97186678, -37.847110566 ], [ 144.971752819000017, -37.847020577 ], [ 144.971642769, -37.846927606 ], [ 144.971597679000013, -37.846886561 ], [ 144.971509713000017, -37.846802609 ], [ 144.97142563, -37.846716656 ], [ 144.971344594000016, -37.846628586 ], [ 144.971267573, -37.846538603 ], [ 144.971195587000011, -37.846445655 ], [ 144.971126546000022, -37.84635167 ], [ 144.971061455000012, -37.846256675 ], [ 144.971000488000016, -37.846158682 ], [ 144.97094339, -37.846059681 ], [ 144.970891229000017, -37.845959744 ], [ 144.970842691, -37.845857901 ], [ 144.970798443, -37.845754832 ], [ 144.970758529000022, -37.84565067 ], [ 144.970722216000013, -37.845544593 ], [ 144.970691236000022, -37.845439621 ], [ 144.970665137, -37.845332694 ], [ 144.970642139, -37.845225569 ], [ 144.970625134000016, -37.845116517 ], [ 144.970611109, -37.845008502 ], [ 144.970603306000015, -37.844900308 ], [ 144.970599053, -37.844790499 ], [ 144.970599093, -37.844682459 ], [ 144.970604022, -37.844573515 ], [ 144.970612994000021, -37.844464448 ], [ 144.970628014, -37.844356506 ], [ 144.970645956, -37.844248418 ], [ 144.97066892, -37.844141398 ], [ 144.97089595700001, -37.843178409 ], [ 144.970948989000021, -37.842956426 ], [ 144.970961242000016, -37.842912378 ], [ 144.970980905, -37.842849418 ], [ 144.971005813, -37.842786424 ], [ 144.971034775000021, -37.842726462 ], [ 144.971067777, -37.842666378 ], [ 144.971104749, -37.842608336 ], [ 144.971146730000015, -37.84255236 ], [ 144.971191704, -37.84249733 ], [ 144.971240703, -37.842445245 ], [ 144.97152705000002, -37.842155004 ], [ 144.971534021, -37.842147012 ], [ 144.97157806300001, -37.842091987 ], [ 144.971620012000017, -37.842034955 ], [ 144.971657170000015, -37.841976983 ], [ 144.971685026000017, -37.841925974 ], [ 144.971689986, -37.841916994 ], [ 144.971718081, -37.841855007 ], [ 144.971742076, -37.841792994 ], [ 144.971762003, -37.841729002 ], [ 144.971778001000018, -37.841664952 ], [ 144.971789053, -37.841600013 ], [ 144.971795053000022, -37.841534982 ], [ 144.971797052, -37.841468979 ], [ 144.97179498, -37.841403984 ], [ 144.971787016, -37.841339056 ], [ 144.971776052, -37.841273993 ], [ 144.971478994000023, -37.839979055 ], [ 144.971474994, -37.839964025 ], [ 144.971454993, -37.839886982 ], [ 144.971429988000011, -37.839811038 ], [ 144.971399988, -37.839735985 ], [ 144.971366969, -37.83966197 ], [ 144.971330017000014, -37.839590093 ], [ 144.971286930000019, -37.839517932 ], [ 144.971241958, -37.839448941 ], [ 144.971207904000011, -37.839401941 ], [ 144.971154909, -37.839334882 ], [ 144.971098892000015, -37.839268864 ], [ 144.97103888800001, -37.83920584 ], [ 144.970974852000012, -37.839143908 ], [ 144.970907866, -37.839084915 ], [ 144.970836931, -37.839029045 ], [ 144.970762799, -37.838974929 ], [ 144.970685856000017, -37.838923872 ], [ 144.970605858, -37.838874928 ], [ 144.970523791, -37.838829905 ], [ 144.970438854, -37.838786912 ], [ 144.970351838, -37.838747949 ], [ 144.970262971000011, -37.838712108 ], [ 144.970171676, -37.83867916 ], [ 144.970077770000017, -37.838648916 ], [ 144.96998382000001, -37.838623233 ], [ 144.969886770000016, -37.83859994 ], [ 144.969789784, -37.838580983 ], [ 144.969691788, -37.838564976 ], [ 144.969592852, -37.838552016 ], [ 144.969492876, -37.838543006 ], [ 144.969392951, -37.838539031 ], [ 144.969281932, -37.838536042 ], [ 144.969167989, -37.838530014 ], [ 144.96909697000001, -37.838523013 ], [ 144.969011005, -37.838510992 ], [ 144.968924002000023, -37.838495969 ], [ 144.968838987, -37.838477025 ], [ 144.96875595100002, -37.838453965 ], [ 144.968674907, -37.838430154 ], [ 144.968594004000011, -37.838400983 ], [ 144.96851602000001, -37.838368013 ], [ 144.968439965000016, -37.838333006 ], [ 144.968366050000014, -37.838294964 ], [ 144.968321985000017, -37.838268986 ], [ 144.968295975000018, -37.838254025 ], [ 144.968228029000016, -37.838209968 ], [ 144.968162994000011, -37.838162995 ], [ 144.968099996, -37.838112982 ], [ 144.968041989, -37.838061973 ], [ 144.96798899, -37.837996016 ], [ 144.967928018, -37.837912961 ], [ 144.967899056000022, -37.83786894 ], [ 144.967897986, -37.83786694 ], [ 144.967871038, -37.837828011 ], [ 144.967817062000023, -37.83774302 ], [ 144.967769078, -37.837654991 ], [ 144.967724065, -37.837566727 ], [ 144.967682267000015, -37.837475936 ], [ 144.967647019, -37.837384561 ], [ 144.967663596000023, -37.837378754 ], [ 144.96788239, -37.837313999 ], [ 144.967891409, -37.837311029 ], [ 144.967902366, -37.837307975 ], [ 144.967912414000011, -37.837304001 ], [ 144.967922412, -37.837301027 ], [ 144.967932238, -37.837297105 ], [ 144.967943154000011, -37.83729411 ], [ 144.967952088, -37.837291131 ], [ 144.967963077, -37.837287179 ], [ 144.967973148, -37.837284118 ], [ 144.967983105, -37.837280138 ], [ 144.967994164, -37.837277172 ], [ 144.968003182000018, -37.837273184 ], [ 144.968014256, -37.837269157 ], [ 144.968023344000017, -37.837266172 ], [ 144.968034458, -37.837262232 ], [ 144.96804364800002, -37.837259168 ], [ 144.968048627, -37.837257188 ], [ 144.968054659000018, -37.837256199 ], [ 144.968064709, -37.837252225 ], [ 144.968074668000014, -37.837248164 ], [ 144.968085658, -37.837244201 ], [ 144.968094814000011, -37.837241156 ], [ 144.968106223, -37.837236829 ], [ 144.968115559000012, -37.837233603 ], [ 144.968126943000016, -37.837229385 ], [ 144.968135966, -37.837225393 ], [ 144.968146957000016, -37.837221339 ], [ 144.968156043000022, -37.837218345 ], [ 144.968166241, -37.837214187 ], [ 144.968177497, -37.837211062 ], [ 144.968186532, -37.837206978 ], [ 144.968197512000017, -37.837203023 ], [ 144.968206525, -37.837199024 ], [ 144.96821739, -37.837194928 ], [ 144.968226284, -37.83719189 ], [ 144.968236219, -37.837187877 ], [ 144.968246066, -37.837183865 ], [ 144.968256002, -37.837179762 ], [ 144.968266931000016, -37.837176781 ], [ 144.968275953000017, -37.837172787 ], [ 144.968286004000021, -37.837168814 ], [ 144.968295966, -37.837164748 ], [ 144.968306016000014, -37.837160772 ], [ 144.968315038000014, -37.837156776 ], [ 144.968326027000018, -37.83715273 ], [ 144.968335049000018, -37.837148734 ], [ 144.96834501, -37.837144748 ], [ 144.968356063000016, -37.837141691 ], [ 144.968365085000016, -37.837137696 ], [ 144.968375072000015, -37.837132729 ], [ 144.968385058, -37.837128733 ], [ 144.968394885, -37.837125614 ], [ 144.968403801000022, -37.837121595 ], [ 144.968413756000018, -37.837116581 ], [ 144.968424602, -37.837113489 ], [ 144.968433518000012, -37.83710946 ], [ 144.968443383000022, -37.837104456 ], [ 144.968452299, -37.837100427 ], [ 144.968463234000012, -37.837097325 ], [ 144.968472081000016, -37.837092304 ], [ 144.968482039, -37.837088299 ], [ 144.968491061, -37.837084302 ], [ 144.968501023000016, -37.837080236 ], [ 144.968512079000021, -37.837074286 ], [ 144.968521037000016, -37.837072284 ], [ 144.96853108900001, -37.837068298 ], [ 144.968540052, -37.837063219 ], [ 144.968550104, -37.837059243 ], [ 144.968559126, -37.837055247 ], [ 144.968569120000012, -37.837050189 ], [ 144.968579903, -37.8370473 ], [ 144.968588544, -37.837042392 ], [ 144.968598260000022, -37.83703851 ], [ 144.968606973000021, -37.83703451 ], [ 144.96861661600002, -37.83702964 ], [ 144.96862533, -37.837025731 ], [ 144.968635217000013, -37.837021785 ], [ 144.96864521400002, -37.83701775 ], [ 144.968654186, -37.837012794 ], [ 144.968664083000021, -37.837008838 ], [ 144.968673065000019, -37.837003792 ], [ 144.968683039000013, -37.837000836 ], [ 144.968691922, -37.836995879 ], [ 144.968701832000022, -37.836990944 ], [ 144.968711828000011, -37.836986909 ], [ 144.968720888, -37.836982927 ], [ 144.968730968000017, -37.836978953 ], [ 144.96874012, -37.836973969 ], [ 144.968750233, -37.836968905 ], [ 144.968759362000014, -37.836964912 ], [ 144.968769447, -37.836960868 ], [ 144.968779386000023, -37.836956779 ], [ 144.968788417000013, -37.836951628 ], [ 144.96879838800001, -37.836946667 ], [ 144.968807401000021, -37.836942677 ], [ 144.968817382, -37.836937616 ], [ 144.968826394000018, -37.836933625 ], [ 144.968835435000017, -37.836928644 ], [ 144.968845388, -37.836924674 ], [ 144.968854419, -37.836919692 ], [ 144.968864372000013, -37.836915632 ], [ 144.968873412000022, -37.836910651 ], [ 144.968883295000012, -37.836905574 ], [ 144.968892204000014, -37.836901372 ], [ 144.96890113500001, -37.836896269 ], [ 144.968910971000014, -37.836892389 ], [ 144.968919906, -37.836887501 ], [ 144.968929846, -37.836882523 ], [ 144.968937982, -37.836877517 ], [ 144.968948178, -37.836873545 ], [ 144.968958304000012, -37.83686858 ], [ 144.968967372, -37.836864499 ], [ 144.968976313000013, -37.836859518 ], [ 144.968985355, -37.836854538 ], [ 144.968995327000016, -37.836849568 ], [ 144.969005373000016, -37.83684551 ], [ 144.969013383, -37.836840518 ], [ 144.969023366000016, -37.836835548 ], [ 144.969032397, -37.836830568 ], [ 144.96904132100002, -37.836826579 ], [ 144.969051331, -37.836820537 ], [ 144.969054353000018, -37.836819508 ], [ 144.969060345, -37.836816548 ], [ 144.969069377000011, -37.836811567 ], [ 144.969075368, -37.836808517 ], [ 144.969078328, -37.836806496 ], [ 144.96907936, -37.836806507 ], [ 144.969088401000022, -37.836801536 ], [ 144.969096383000021, -37.836797526 ], [ 144.969106356, -37.836792557 ], [ 144.969115398000014, -37.836787486 ], [ 144.969124349, -37.836782505 ], [ 144.969133391000014, -37.836777524 ], [ 144.969142422, -37.836772543 ], [ 144.969152405000017, -37.836767493 ], [ 144.969161347000011, -37.836762512 ], [ 144.969170388, -37.836757532 ], [ 144.96917943, -37.836752551 ], [ 144.969188353000021, -37.836748562 ], [ 144.969197413000018, -37.836742499 ], [ 144.969207368000014, -37.836738531 ], [ 144.969215406000018, -37.836732537 ], [ 144.969225378, -37.836727568 ], [ 144.969233361000022, -37.836723568 ], [ 144.969243463, -37.836717509 ], [ 144.96925261200002, -37.836713511 ], [ 144.969260791000011, -37.836707516 ], [ 144.969270922000021, -37.836702446 ], [ 144.969279023000013, -37.836698428 ], [ 144.969289187000015, -37.836692464 ], [ 144.969306504, -37.836682462 ], [ 144.969316635000013, -37.836677402 ], [ 144.969333905000013, -37.836666407 ], [ 144.96934412600001, -37.836661436 ], [ 144.96935227100002, -37.836656425 ], [ 144.969361354, -37.836651344 ], [ 144.969370537, -37.836646353 ], [ 144.969379619000023, -37.836641362 ], [ 144.969388845, -37.836635378 ], [ 144.969397799, -37.836630308 ], [ 144.969406828000018, -37.836625329 ], [ 144.969414778000015, -37.836619335 ], [ 144.969423816000017, -37.836614356 ], [ 144.969433854000016, -37.8366103 ], [ 144.969467818, -37.836588355 ], [ 144.969477826, -37.836583258 ], [ 144.969502914, -37.836567187 ], [ 144.969512012, -37.836561175 ], [ 144.96953804, -37.836545012 ], [ 144.969548118, -37.836540025 ], [ 144.969555141, -37.836534019 ], [ 144.969565141, -37.836527969 ], [ 144.969573152, -37.836522969 ], [ 144.969581063000021, -37.836517978 ], [ 144.969590136000022, -37.836512007 ], [ 144.969598085, -37.836506013 ], [ 144.96960715900002, -37.836499941 ], [ 144.969616133000017, -37.836493969 ], [ 144.969624114, -37.836488966 ], [ 144.969632774000019, -37.836482852 ], [ 144.969640520000013, -37.836476745 ], [ 144.969649132, -37.836470512 ], [ 144.969656789, -37.836465373 ], [ 144.969664469, -37.83645922 ], [ 144.96967303, -37.836453145 ], [ 144.96967394, -37.836452151 ], [ 144.969680678, -37.836448064 ], [ 144.969689438000017, -37.836442045 ], [ 144.969694444, -37.836436982 ], [ 144.969697476000022, -37.836435958 ], [ 144.969705415000021, -37.836429962 ], [ 144.969714474, -37.836423991 ], [ 144.96972344400001, -37.83641802 ], [ 144.969730423000016, -37.836412996 ], [ 144.96973949300002, -37.836407025 ], [ 144.969748462000013, -37.836400963 ], [ 144.969756491, -37.836394967 ], [ 144.969764254000012, -37.836388128 ], [ 144.969771951000013, -37.836383365 ], [ 144.969780563, -37.836377665 ], [ 144.969788519000019, -37.836371642 ], [ 144.969796456000012, -37.836365649 ], [ 144.969804483000019, -37.836359657 ], [ 144.969813454000018, -37.836353688 ], [ 144.969821491, -37.836347695 ], [ 144.969829518000012, -37.836341703 ], [ 144.969837465000012, -37.83633563 ], [ 144.969845492000019, -37.836329638 ], [ 144.969854462, -37.836323658 ], [ 144.969861669000011, -37.836317778 ], [ 144.969870883, -37.83631196 ], [ 144.969879140000018, -37.83630611 ], [ 144.969887407000016, -37.83630026 ], [ 144.96989557400002, -37.83629432 ], [ 144.96990489, -37.836288502 ], [ 144.969912006000015, -37.836282619 ], [ 144.969921312, -37.836276801 ], [ 144.96992932, -37.836270853 ], [ 144.969937391, -37.836263873 ], [ 144.969945332, -37.836257793 ], [ 144.969952333, -37.836251792 ], [ 144.969961403000013, -37.836245823 ], [ 144.969977405, -37.836232852 ], [ 144.969985345, -37.836226862 ], [ 144.969993385, -37.836220872 ], [ 144.97000133100002, -37.836214754 ], [ 144.970009366, -37.836208725 ], [ 144.970017412, -37.836202697 ], [ 144.970024359, -37.836195668 ], [ 144.970033424, -37.836189657 ], [ 144.970041369, -37.836183629 ], [ 144.970048382000016, -37.836177608 ], [ 144.970056447000019, -37.836170596 ], [ 144.97006439, -37.836164498 ], [ 144.970072429, -37.836158509 ], [ 144.970080369000016, -37.83615252 ], [ 144.970087401, -37.836145528 ], [ 144.970095431, -37.836139539 ], [ 144.970104409000015, -37.836133572 ], [ 144.970111441, -37.83612657 ], [ 144.970127423, -37.836114484 ], [ 144.97013446, -37.836107453 ], [ 144.970142405000018, -37.836101424 ], [ 144.970150471000011, -37.836094401 ], [ 144.970157476, -37.836088353 ], [ 144.970165453000021, -37.836081329 ], [ 144.970173398000014, -37.836075299 ], [ 144.970180410000012, -37.836069279 ], [ 144.970188470000011, -37.836062309 ], [ 144.97019641, -37.836056231 ], [ 144.970203441, -37.836049229 ], [ 144.970211480000017, -37.836043241 ], [ 144.97021942, -37.836037253 ], [ 144.970226451, -37.836030251 ], [ 144.97023449, -37.836024274 ], [ 144.970242455, -37.836017264 ], [ 144.97024947, -37.836011216 ], [ 144.970257446, -37.836004192 ], [ 144.970265480000023, -37.835998163 ], [ 144.970272517000012, -37.835991119 ], [ 144.970279464000015, -37.835983995 ], [ 144.970287509, -37.835977966 ], [ 144.970294456, -37.835970923 ], [ 144.970302522, -37.835963898 ], [ 144.970310465000011, -37.835957879 ], [ 144.970316536000013, -37.835951858 ], [ 144.970324506, -37.835944879 ], [ 144.970332535000011, -37.835938893 ], [ 144.970339476000021, -37.835931891 ], [ 144.970346507000016, -37.835924899 ], [ 144.970354477, -37.83591792 ], [ 144.970361477000012, -37.835911912 ], [ 144.970369565, -37.835904831 ], [ 144.970376678, -37.835897733 ], [ 144.970383859, -37.835891645 ], [ 144.970391947, -37.835885629 ], [ 144.97039897800002, -37.835878629 ], [ 144.970405919, -37.835871628 ], [ 144.97041295, -37.835864637 ], [ 144.97042091900002, -37.83585766 ], [ 144.970427950000015, -37.835850659 ], [ 144.970434959000016, -37.835844652 ], [ 144.970442895000019, -37.835838669 ], [ 144.970448994, -37.835831608 ], [ 144.970457264, -37.835824529 ], [ 144.970464352000022, -37.835817457 ], [ 144.97047139, -37.835810458 ], [ 144.970478491000023, -37.835803418 ], [ 144.970486612, -37.835797341 ], [ 144.970493845000021, -37.835790243 ], [ 144.970501067000015, -37.835783155 ], [ 144.970508198, -37.835776057 ], [ 144.97051542, -37.83576896 ], [ 144.97052264200002, -37.835761862 ], [ 144.970536947, -37.835748678 ], [ 144.970544169000021, -37.83574158 ], [ 144.970551306, -37.835734449 ], [ 144.970558252000018, -37.835727437 ], [ 144.970565307000015, -37.835720426 ], [ 144.97057935700002, -37.835707412 ], [ 144.970586347000022, -37.835699407 ], [ 144.970600336000018, -37.835685404 ], [ 144.970607335000011, -37.835679395 ], [ 144.970614372, -37.835672391 ], [ 144.970621405, -37.8356654 ], [ 144.970628387, -37.835657401 ], [ 144.97063436000002, -37.835651369 ], [ 144.970648213, -37.835637551 ], [ 144.970654912000015, -37.835630732 ], [ 144.970661729, -37.835622944 ], [ 144.970668516000018, -37.835617109 ], [ 144.970675215, -37.835610291 ], [ 144.970681016000015, -37.835603446 ], [ 144.970687822, -37.835595647 ], [ 144.970694522, -37.835589811 ], [ 144.970700313, -37.835582965 ], [ 144.970707195000017, -37.835575116 ], [ 144.970720127000021, -37.835561106 ], [ 144.970727166000017, -37.835554108 ], [ 144.970741133000018, -37.835540122 ], [ 144.970747123, -37.835533193 ], [ 144.970754160000013, -37.835526116 ], [ 144.97076018300001, -37.835518194 ], [ 144.970773185000013, -37.835505183 ], [ 144.970780143000013, -37.835497195 ], [ 144.970787177, -37.8354902 ], [ 144.97079317, -37.835483187 ], [ 144.97079914, -37.835476152 ], [ 144.970806065, -37.835468133 ], [ 144.970812044000013, -37.835461088 ], [ 144.970819059, -37.835453078 ], [ 144.970825934, -37.835447048 ], [ 144.970831934000017, -37.835439007 ], [ 144.970837903000017, -37.83543197 ], [ 144.970844908, -37.835424943 ], [ 144.970850877, -37.835417906 ], [ 144.970863819000016, -37.835402882 ], [ 144.970869829, -37.835395873 ], [ 144.970876878000013, -37.835387886 ], [ 144.970882856, -37.83538196 ], [ 144.970888878000011, -37.835373948 ], [ 144.970895848, -37.83536587 ], [ 144.970900888000017, -37.83535993 ], [ 144.970907847, -37.835351942 ], [ 144.970913879000022, -37.835343931 ], [ 144.970920875000019, -37.835337938 ], [ 144.970925879000021, -37.835329903 ], [ 144.970932848000018, -37.835321915 ], [ 144.970938816, -37.835315899 ], [ 144.970944848000016, -37.835307887 ], [ 144.97095088, -37.835299885 ], [ 144.970957875000011, -37.835293973 ], [ 144.970963817000012, -37.835285971 ], [ 144.970968812, -37.835277936 ], [ 144.970975861, -37.835270969 ], [ 144.97098190600002, -37.835263978 ], [ 144.97098890700002, -37.835256023 ], [ 144.970994013, -37.835249018 ], [ 144.97099998500002, -37.835241048 ], [ 144.97100602, -37.835234058 ], [ 144.97101308400002, -37.835227102 ], [ 144.971018126000018, -37.835219187 ], [ 144.97102416200002, -37.835212207 ], [ 144.971031172000011, -37.835204252 ], [ 144.971042250000011, -37.835189267 ], [ 144.971048311, -37.835181297 ], [ 144.971054346000017, -37.835174307 ], [ 144.971060392, -37.835167326 ], [ 144.97106645300002, -37.835159436 ], [ 144.971072488, -37.835152456 ], [ 144.97107846900002, -37.835144476 ], [ 144.971083512, -37.835136481 ], [ 144.97108954700002, -37.835129501 ], [ 144.971687555000017, -37.834263706 ], [ 144.971641222000017, -37.83391381 ], [ 144.971668193, -37.833831459 ], [ 144.971694786, -37.833730558 ], [ 144.971717597, -37.833632448 ], [ 144.97173641400002, -37.833531763 ], [ 144.97174974, -37.83343302 ], [ 144.971759993, -37.833333732 ], [ 144.971764213, -37.833229902 ], [ 144.971765433, -37.833128255 ], [ 144.971760265, -37.833028218 ], [ 144.971751673, -37.832928504 ], [ 144.971738957000014, -37.832828126 ], [ 144.971721203000016, -37.832728674 ], [ 144.971701240000016, -37.832628336 ], [ 144.97167436, -37.832529057 ], [ 144.971642603000021, -37.832430852 ], [ 144.971607958000021, -37.832334666 ], [ 144.970711767000012, -37.83259087 ], [ 144.970214423000016, -37.832733952 ], [ 144.97013196, -37.832572527 ], [ 144.970127988, -37.832566605 ], [ 144.970125191000022, -37.832558506 ], [ 144.970121335000016, -37.832550488 ], [ 144.970114488, -37.832535589 ], [ 144.970111436, -37.832528671 ], [ 144.970107481000014, -37.832520757 ], [ 144.970103516000023, -37.832512854 ], [ 144.97009961, -37.832505924 ], [ 144.970096601000023, -37.83249802 ], [ 144.970093651000013, -37.832491101 ], [ 144.970089744, -37.832484181 ], [ 144.970086760000015, -37.832476208 ], [ 144.970082807000011, -37.832469212 ], [ 144.970079947000016, -37.83246114 ], [ 144.970076032, -37.832453143 ], [ 144.97007312300002, -37.832446153 ], [ 144.97007025100001, -37.832438172 ], [ 144.970066288, -37.832431166 ], [ 144.970063314000015, -37.832423198 ], [ 144.970059342000013, -37.832415286 ], [ 144.970056365, -37.832408369 ], [ 144.970053437000018, -37.832400471 ], [ 144.970050471, -37.832393475 ], [ 144.970046488, -37.832385562 ], [ 144.970043511, -37.832378646 ], [ 144.970039538, -37.832370733 ], [ 144.97003651, -37.832362835 ], [ 144.97003258700002, -37.832355865 ], [ 144.970030601000019, -37.832347924 ], [ 144.970026576, -37.832340932 ], [ 144.970023646000016, -37.832332972 ], [ 144.970020707, -37.832324922 ], [ 144.970016692, -37.832317939 ], [ 144.97001369100002, -37.832308981 ], [ 144.970010721000023, -37.832302023 ], [ 144.970007758, -37.832294053 ], [ 144.970004758000016, -37.832287045 ], [ 144.970001693, -37.832278945 ], [ 144.969997672, -37.832270933 ], [ 144.969994672000013, -37.832263925 ], [ 144.969991697000012, -37.832255925 ], [ 144.969988697000019, -37.832248917 ], [ 144.969985632, -37.832240917 ], [ 144.96997961, -37.832225898 ], [ 144.969976602, -37.832217953 ], [ 144.969973503, -37.832210008 ], [ 144.96997050600001, -37.832202063 ], [ 144.969966416, -37.83219509 ], [ 144.969961336000011, -37.832180113 ], [ 144.969958530000014, -37.832172293 ], [ 144.969955741, -37.832164468 ], [ 144.969952665000022, -37.832156471 ], [ 144.969949681, -37.832148383 ], [ 144.96994667200002, -37.83214138 ], [ 144.969944642, -37.832133387 ], [ 144.969941623000011, -37.832126383 ], [ 144.96993864800001, -37.832118386 ], [ 144.969935572, -37.832110298 ], [ 144.969929511, -37.832095304 ], [ 144.969926398000013, -37.83208732 ], [ 144.969923191000021, -37.832079336 ], [ 144.969921122000017, -37.832072268 ], [ 144.969917944, -37.832063291 ], [ 144.969914879000015, -37.832056298 ], [ 144.96990879, -37.832041317 ], [ 144.969906727000023, -37.832033254 ], [ 144.96990369300002, -37.832025267 ], [ 144.969900573000018, -37.83201726 ], [ 144.969898582000013, -37.832010172 ], [ 144.96989549, -37.832001169 ], [ 144.969892446000017, -37.831994156 ], [ 144.969890477, -37.831986164 ], [ 144.969887376, -37.831978066 ], [ 144.969884322000013, -37.831971053 ], [ 144.969881301000015, -37.831963045 ], [ 144.969879240000012, -37.831955043 ], [ 144.970469392000012, -37.831833522 ], [ 144.970423183, -37.831670209 ], [ 144.970438176000016, -37.831635109 ], [ 144.970414272, -37.831550064 ], [ 144.970401081, -37.831502999 ], [ 144.969894546, -37.831576188 ], [ 144.969777539, -37.831594937 ], [ 144.969697577, -37.831058241 ], [ 144.96967668000002, -37.831010903 ], [ 144.969788339000019, -37.830991839 ], [ 144.970403391000019, -37.830873291 ], [ 144.970448728, -37.830864242 ], [ 144.970410026, -37.830159354 ], [ 144.970303888000018, -37.830190116 ], [ 144.970298098, -37.830191796 ], [ 144.969415197000018, -37.830448062 ], [ 144.965845043, -37.831482245 ], [ 144.963196834, -37.828808132 ], [ 144.963190864000012, -37.828804839 ], [ 144.962785960000019, -37.828581047 ], [ 144.962654655000023, -37.828620215 ], [ 144.959041698000021, -37.829685226 ], [ 144.954963745000015, -37.830844733 ], [ 144.954542270000019, -37.830678813 ], [ 144.95407168600002, -37.831074614 ], [ 144.952758675000013, -37.828224516 ], [ 144.94959178000002, -37.830168118 ], [ 144.949012595, -37.829576067 ], [ 144.947170114000016, -37.827602276 ], [ 144.947162149, -37.827596177 ], [ 144.947155194, -37.827589086 ], [ 144.947148159000022, -37.827581905 ], [ 144.947141110000018, -37.82757381 ], [ 144.947135247, -37.827567709 ], [ 144.947127595000012, -37.82755972 ], [ 144.94712090500002, -37.827552742 ], [ 144.94711623500001, -37.827544716 ], [ 144.947109517, -37.827538731 ], [ 144.947096205, -37.827522688 ], [ 144.94709144700002, -37.827514663 ], [ 144.947085749, -37.827507613 ], [ 144.947079060000021, -37.827500634 ], [ 144.947074293000014, -37.827492599 ], [ 144.947068594, -37.827485639 ], [ 144.947062933000012, -37.827477596 ], [ 144.947056912000022, -37.827469713 ], [ 144.947051796000011, -37.827462752 ], [ 144.947046715, -37.827453803 ], [ 144.947040656000013, -37.827446833 ], [ 144.947034543, -37.827437965 ], [ 144.94703046, -37.827431013 ], [ 144.947025389, -37.827422063 ], [ 144.947020363, -37.827415092 ], [ 144.947015259000011, -37.827407142 ], [ 144.947010188, -37.827398192 ], [ 144.947006117, -37.827390241 ], [ 144.947001024, -37.827382291 ], [ 144.946996021000018, -37.82737442 ], [ 144.946991950000012, -37.827366469 ], [ 144.946987812, -37.827357529 ], [ 144.946983751, -37.827349488 ], [ 144.946979703000011, -37.827340557 ], [ 144.946975642000012, -37.827332605 ], [ 144.946971503000015, -37.827323665 ], [ 144.946967433, -37.827315714 ], [ 144.94696536, -37.827306781 ], [ 144.946961299, -37.82729884 ], [ 144.946957239, -37.827290889 ], [ 144.946954155000014, -37.827280868 ], [ 144.946951117, -37.827272925 ], [ 144.946948012, -37.827263994 ], [ 144.946944984, -37.827256051 ], [ 144.946942910000018, -37.827247038 ], [ 144.946939805, -37.827238097 ], [ 144.94693669900002, -37.827229076 ], [ 144.946934704, -37.827221142 ], [ 144.94693159800002, -37.82721221 ], [ 144.946927452000011, -37.827194265 ], [ 144.946925356, -37.827186232 ], [ 144.946923284, -37.827177309 ], [ 144.946922266, -37.827167306 ], [ 144.946920181, -37.827159373 ], [ 144.946918107000016, -37.82715035 ], [ 144.946917134000017, -37.827141212 ], [ 144.946915103, -37.827133161 ], [ 144.946914141, -37.827124022 ], [ 144.946913099, -37.82711388 ], [ 144.946912127000019, -37.827104841 ], [ 144.946911065000023, -37.827095702 ], [ 144.946910063000018, -37.827087656 ], [ 144.946910121, -37.827078532 ], [ 144.946909059, -37.827069403 ], [ 144.946909126, -37.827060278 ], [ 144.946908084, -37.827050136 ], [ 144.946908104000016, -37.827014732 ], [ 144.946909101000017, -37.827005623 ], [ 144.946909036000022, -37.826987375 ], [ 144.946910033000023, -37.826978255 ], [ 144.946912026, -37.826960037 ], [ 144.946913084000016, -37.82695193 ], [ 144.94691402, -37.826941728 ], [ 144.946915007, -37.826932608 ], [ 144.946916034, -37.826922497 ], [ 144.946918, -37.826915408 ], [ 144.946918997000012, -37.826906289 ], [ 144.946921023000016, -37.826897195 ], [ 144.94692305, -37.82688809 ], [ 144.946927012, -37.826869801 ], [ 144.946927979, -37.826861695 ], [ 144.946930006, -37.826852601 ], [ 144.946932991000011, -37.826842418 ], [ 144.94693498800001, -37.826834317 ], [ 144.94693967, -37.826807073 ], [ 144.946540761000023, -37.826784511 ], [ 144.946449003, -37.826712244 ], [ 144.946424824000019, -37.826695841 ], [ 144.94640422400002, -37.826682793 ], [ 144.946356614, -37.826659252 ], [ 144.946306765, -37.82663885 ], [ 144.946254995, -37.826621728 ], [ 144.94620165500001, -37.826607972 ], [ 144.946188454, -37.826605152 ], [ 144.945593218, -37.826500185 ], [ 144.945276260000014, -37.826484413 ], [ 144.942823163000014, -37.826053051 ], [ 144.942079484, -37.825975997 ], [ 144.941702815000014, -37.825956728 ], [ 144.941511683000016, -37.825971045 ], [ 144.941421284, -37.825981315 ], [ 144.941393120000015, -37.825985168 ], [ 144.941206262, -37.826011411 ], [ 144.94116965, -37.826023558 ], [ 144.941114596, -37.825952028 ], [ 144.940584322, -37.825948814 ], [ 144.940342354, -37.825947376 ], [ 144.940447346000013, -37.82603809 ], [ 144.941949754, -37.827335552 ], [ 144.941950600000013, -37.827335672 ], [ 144.946178589, -37.83098718 ], [ 144.946440332, -37.831147169 ], [ 144.947756663, -37.832314386 ], [ 144.949750962, -37.834098254 ], [ 144.948841829, -37.836093498 ], [ 144.946495467, -37.840992239 ], [ 144.945591232, -37.842882626 ], [ 144.945572723, -37.843047227 ], [ 144.943468857, -37.845316035 ], [ 144.94334652, -37.845446486 ], [ 144.942730563, -37.846119038 ], [ 144.942494593000021, -37.846010894 ], [ 144.942026527, -37.845865399 ], [ 144.941693156000014, -37.845739377 ], [ 144.941306457, -37.845553611 ], [ 144.940461475, -37.845301266 ], [ 144.940127513000022, -37.845168929 ], [ 144.940016713, -37.845143283 ], [ 144.939788962000023, -37.844985798 ], [ 144.939559431000021, -37.84487241 ], [ 144.939525706000012, -37.844831935 ], [ 144.939594588, -37.844761445 ], [ 144.939562913, -37.844714166 ], [ 144.939453428, -37.84461535 ], [ 144.939243616, -37.844491727 ], [ 144.937563383, -37.843754683 ], [ 144.937393157, -37.843910642 ], [ 144.937017465, -37.843648651 ], [ 144.937128423000019, -37.843543247 ], [ 144.937128134, -37.843422233 ], [ 144.937100318, -37.843361197 ], [ 144.936991716000023, -37.843282727 ], [ 144.936846694, -37.843222416 ], [ 144.936335298000017, -37.843057621 ], [ 144.935756585, -37.842897929 ], [ 144.934379635, -37.842618319 ], [ 144.933486209000023, -37.842413046 ], [ 144.933411225000015, -37.842410002 ], [ 144.933353073, -37.842425478 ], [ 144.933275357000014, -37.842582887 ], [ 144.933274201000017, -37.842622181 ], [ 144.933226291000011, -37.842681831 ], [ 144.933131399000018, -37.842753656 ], [ 144.933039989, -37.842787452 ], [ 144.932954466000012, -37.842795927 ], [ 144.932697655, -37.842789853 ], [ 144.932538573000016, -37.84282121 ], [ 144.932459156000021, -37.842805624 ], [ 144.932208252, -37.843083528 ], [ 144.932150751000023, -37.843294372 ], [ 144.932036507000021, -37.843267859 ], [ 144.932046370000023, -37.843244013 ], [ 144.931938347, -37.843221753 ], [ 144.931543630000021, -37.844352454 ], [ 144.930605711, -37.847167695 ], [ 144.930021626000013, -37.847364892 ], [ 144.929863884000014, -37.847326588 ], [ 144.929841646, -37.847298879 ], [ 144.93101119100001, -37.843875264 ], [ 144.931487855, -37.842352247 ], [ 144.931509476, -37.842286097 ], [ 144.931443242, -37.842207185 ], [ 144.931228520000019, -37.8421595 ], [ 144.9309427, -37.842489714 ], [ 144.930745306, -37.84277653 ], [ 144.930736966000012, -37.842788424 ], [ 144.930726125, -37.842804625 ], [ 144.930697360000011, -37.842801862 ], [ 144.930685161000014, -37.842776193 ], [ 144.930682393000012, -37.842761722 ], [ 144.931084287, -37.842018639 ], [ 144.93115343, -37.84198382 ], [ 144.931594943000022, -37.842069529 ], [ 144.931607301000014, -37.842009773 ], [ 144.931579275000018, -37.841962892 ], [ 144.931296156, -37.841896509 ], [ 144.931181494000015, -37.841899814 ], [ 144.931110681, -37.841921116 ], [ 144.931000187, -37.841980575 ], [ 144.930944949, -37.841940081 ], [ 144.930871532, -37.84184123 ], [ 144.930857435, -37.841797441 ], [ 144.930763762, -37.841776508 ], [ 144.930695937, -37.84174509 ], [ 144.93067351900001, -37.841700246 ], [ 144.930671469, -37.84164932 ], [ 144.930685143, -37.841603782 ], [ 144.930719081, -37.841579075 ], [ 144.930729652, -37.84157487 ], [ 144.930735624000022, -37.841570599 ], [ 144.930745523000013, -37.841568567 ], [ 144.930762158000022, -37.841565142 ], [ 144.93078962300001, -37.841558404 ], [ 144.930814434000013, -37.841557537 ], [ 144.930833412, -37.841557865 ], [ 144.930858064, -37.841562224 ], [ 144.930875010000022, -37.841511461 ], [ 144.931205817, -37.841582385 ], [ 144.93153275, -37.841652464 ], [ 144.931642910000022, -37.841317467 ], [ 144.931675171, -37.841208214 ], [ 144.931595638, -37.841187149 ], [ 144.931626679, -37.841117067 ], [ 144.931361418000023, -37.841053817 ], [ 144.93136798, -37.841033098 ], [ 144.93079417200002, -37.840908785 ], [ 144.930774695, -37.840915531 ], [ 144.93074393400002, -37.8409217 ], [ 144.93070706, -37.840927767 ], [ 144.93069388, -37.84092791 ], [ 144.930671825000019, -37.840926019 ], [ 144.930654112000013, -37.840919733 ], [ 144.930634619000017, -37.840909689 ], [ 144.930616514, -37.840900027 ], [ 144.93060039, -37.84088667 ], [ 144.930590806, -37.840875673 ], [ 144.930572305, -37.84086144 ], [ 144.930312277000013, -37.840813483 ], [ 144.930133097, -37.840777335 ], [ 144.929825568000012, -37.840707329 ], [ 144.929706374, -37.840683251 ], [ 144.929664959, -37.840670639 ], [ 144.929635874000013, -37.840668332 ], [ 144.929606103, -37.840667566 ], [ 144.929578629000019, -37.840666837 ], [ 144.929559348, -37.840675814 ], [ 144.929536533, -37.840683094 ], [ 144.92950766200002, -37.840703209 ], [ 144.929460249000016, -37.840720599 ], [ 144.929424101, -37.840724506 ], [ 144.929380468, -37.840722409 ], [ 144.929345608, -37.840719566 ], [ 144.929315527, -37.840714029 ], [ 144.929286106, -37.840704802 ], [ 144.929253725, -37.840688692 ], [ 144.929230761000014, -37.840677103 ], [ 144.929210052, -37.840661309 ], [ 144.92919476, -37.840642216 ], [ 144.92918258, -37.840624905 ], [ 144.92916345, -37.840588731 ], [ 144.929143119, -37.840566122 ], [ 144.929122364000023, -37.84055638 ], [ 144.929034189000021, -37.840537801 ], [ 144.927537664, -37.840212627 ], [ 144.92752052900002, -37.840208448 ], [ 144.927088782, -37.841503939 ], [ 144.926935749000023, -37.841958712 ], [ 144.926312582, -37.841827059 ], [ 144.926698351, -37.840670501 ], [ 144.926646186, -37.840708224 ], [ 144.926585324, -37.84072131 ], [ 144.92653291000002, -37.840710846 ], [ 144.926381477, -37.840637397 ], [ 144.9262354, -37.840608774 ], [ 144.925936681, -37.840576754 ], [ 144.925634512000016, -37.84056497 ], [ 144.924908121000016, -37.840559874 ], [ 144.924194103000019, -37.840572724 ], [ 144.923636089000013, -37.840605802 ], [ 144.923378517, -37.840654506 ], [ 144.923318985, -37.84063728 ], [ 144.923283872000013, -37.840604178 ], [ 144.923287813, -37.84005128 ], [ 144.923286562000015, -37.840015644 ], [ 144.923267364, -37.83999917 ], [ 144.923183168, -37.839974535 ], [ 144.922934326000018, -37.839942981 ], [ 144.92267604700001, -37.839939951 ], [ 144.921969860000019, -37.840018601 ], [ 144.920976135000018, -37.840105781 ], [ 144.920774161, -37.84014348 ], [ 144.920708093, -37.84012696 ], [ 144.920663069, -37.840073308 ], [ 144.920633465, -37.839964687 ], [ 144.920601685, -37.839921988 ], [ 144.920464499000019, -37.839884891 ], [ 144.920287033000022, -37.839877246 ], [ 144.91996570500001, -37.839917771 ], [ 144.919027049000022, -37.84011103 ], [ 144.918893902, -37.840149165 ], [ 144.918810516, -37.840146499 ], [ 144.91873917800001, -37.840104747 ], [ 144.918696692, -37.840050511 ], [ 144.918682775, -37.83989456 ], [ 144.918656718000022, -37.839864574 ], [ 144.918556702000018, -37.83983123 ], [ 144.918429156, -37.839829398 ], [ 144.917894784, -37.839885512 ], [ 144.917366023, -37.840018802 ], [ 144.916699467, -37.840241609 ], [ 144.915695598000013, -37.840653529 ], [ 144.915260264000011, -37.84087927 ], [ 144.91450674, -37.841341953 ], [ 144.91429262, -37.841501822 ], [ 144.913999117, -37.841773009 ], [ 144.913838118, -37.841888346 ], [ 144.913434615, -37.842160858 ], [ 144.913356508000021, -37.8422322 ], [ 144.913342520000015, -37.842244935 ], [ 144.91332813, -37.842293382 ], [ 144.913423374000018, -37.842399603 ], [ 144.913428436, -37.842443872 ], [ 144.913490350000018, -37.842499436 ], [ 144.91379537200001, -37.842928582 ], [ 144.914150647000014, -37.843361521 ], [ 144.914386787000012, -37.843732935 ], [ 144.914601155000014, -37.843998863 ], [ 144.914696970000023, -37.844148748 ], [ 144.914780832000019, -37.844259296 ], [ 144.915002799, -37.844469169 ], [ 144.915157627000013, -37.844661478 ], [ 144.915427759000011, -37.845033743 ], [ 144.915465214000022, -37.845109516 ], [ 144.915518551000019, -37.845147188 ], [ 144.915555645000012, -37.845240998 ], [ 144.915607817000023, -37.845283508 ], [ 144.915639562, -37.845345068 ], [ 144.915857174, -37.845593399 ], [ 144.91615348800002, -37.846029362 ], [ 144.916259335, -37.84614443 ], [ 144.916347069000011, -37.846292227 ], [ 144.91670814, -37.846760471 ], [ 144.916837311000023, -37.846962221 ], [ 144.916996504, -37.84715099 ], [ 144.917030165, -37.847207974 ], [ 144.917059972, -37.847370299 ], [ 144.917037678000014, -37.847443021 ], [ 144.916981022000016, -37.8475289 ], [ 144.916871476000011, -37.847613806 ], [ 144.916594504000017, -37.847729752 ], [ 144.916539557000021, -37.847769582 ], [ 144.916247086, -37.847896509 ], [ 144.91611115, -37.847974656 ], [ 144.916076904000022, -37.847974605 ], [ 144.915998987000023, -37.848020105 ], [ 144.915839891000019, -37.848081098 ], [ 144.915199978, -37.848409321 ], [ 144.915128255000013, -37.848452274 ], [ 144.915085436, -37.848457119 ], [ 144.915017026000015, -37.848504886 ], [ 144.914727486, -37.848617169 ], [ 144.914476466, -37.848606818 ], [ 144.91434444, -37.848641872 ], [ 144.914154862, -37.848757397 ], [ 144.913775988, -37.848928071 ], [ 144.913760886, -37.848959198 ], [ 144.912877620000017, -37.849342373 ], [ 144.912667295, -37.849423896 ], [ 144.912482430000011, -37.849459728 ], [ 144.912362916, -37.849304401 ], [ 144.912320985, -37.849327048 ], [ 144.912189432000019, -37.849284947 ], [ 144.912119868000019, -37.849188986 ], [ 144.912174262, -37.849090539 ], [ 144.912211583000015, -37.849074825 ], [ 144.912115398, -37.848929272 ], [ 144.911968852, -37.849000352 ], [ 144.911822317, -37.84880946 ], [ 144.911060393000014, -37.847796012 ], [ 144.910139321, -37.84656922 ], [ 144.90900761, -37.845073206 ], [ 144.908842658, -37.844856257 ], [ 144.908670154000021, -37.844665602 ], [ 144.908364689, -37.844806122 ], [ 144.908239865000013, -37.84442452 ], [ 144.908043205000013, -37.843816388 ], [ 144.90783473800002, -37.843156593 ], [ 144.907759037, -37.84317396 ], [ 144.907717882000014, -37.843064466 ], [ 144.90762757600001, -37.843076894 ], [ 144.907652062000011, -37.843149839 ], [ 144.907611800000012, -37.843165494 ], [ 144.907627454000021, -37.843185652 ], [ 144.907543845000021, -37.843221592 ], [ 144.907476931000019, -37.843188825 ], [ 144.907332081000021, -37.842939481 ], [ 144.90692476000001, -37.842271475 ], [ 144.906728023, -37.841941207 ], [ 144.906491284, -37.842023383 ], [ 144.906300228000021, -37.841694479 ], [ 144.906558556000022, -37.841610032 ], [ 144.906721068, -37.841547431 ], [ 144.906601931000012, -37.841327784 ], [ 144.906569043000019, -37.841343571 ], [ 144.906527732, -37.841344007 ], [ 144.906490983, -37.841339843 ], [ 144.906516783, -37.841157862 ], [ 144.906523369000013, -37.841133415 ], [ 144.906549615000017, -37.84112302 ], [ 144.906439135, -37.840950807 ], [ 144.906495905000014, -37.839622856 ], [ 144.906480453, -37.839376106 ], [ 144.906205114000016, -37.839368667 ], [ 144.906191536000023, -37.839288179 ], [ 144.906102793, -37.8392802 ], [ 144.906010159, -37.839239744 ], [ 144.90594349600002, -37.839127859 ], [ 144.905678193, -37.839097074 ], [ 144.905433089000013, -37.839100599 ], [ 144.905340394, -37.839110061 ], [ 144.905147939000017, -37.839090285 ], [ 144.905020656, -37.83905744 ], [ 144.90297092, -37.839464522 ], [ 144.903514971000021, -37.840886388 ], [ 144.904279567, -37.842884551 ], [ 144.904504326000023, -37.843050159 ], [ 144.904410141, -37.84313767 ], [ 144.904397735, -37.843238213 ], [ 144.904901875, -37.844510016 ], [ 144.904939750000011, -37.844567962 ], [ 144.905016436000011, -37.844688751 ], [ 144.905056198000011, -37.844755528 ], [ 144.905068693, -37.84479393 ], [ 144.905088628000016, -37.844855207 ], [ 144.905452502, -37.845471518 ], [ 144.905633281, -37.845764411 ], [ 144.905671877, -37.845819221 ], [ 144.905725695, -37.84589565 ], [ 144.90579321300001, -37.846001038 ], [ 144.905854109000018, -37.846113926 ], [ 144.905912515000011, -37.846201359 ], [ 144.905974625, -37.846271072 ], [ 144.906033042000018, -37.846358505 ], [ 144.906077134000014, -37.846499041 ], [ 144.906132194, -37.846591499 ], [ 144.906190315, -37.846689094 ], [ 144.906239763, -37.8467535 ], [ 144.906268267, -37.846802212 ], [ 144.90677163, -37.847662475 ], [ 144.90707086, -37.848186165 ], [ 144.907195996000013, -37.848406923 ], [ 144.90716787300002, -37.84872151 ], [ 144.907158118000012, -37.848911675 ], [ 144.907136870000016, -37.848985738 ], [ 144.90711970000001, -37.849050758 ], [ 144.907087634000021, -37.849107315 ], [ 144.907041592000013, -37.849163619 ], [ 144.907021805, -37.849213095 ], [ 144.907024006, -37.849243523 ], [ 144.90707942200001, -37.849289472 ], [ 144.907130129, -37.849338993 ], [ 144.907178053, -37.849378737 ], [ 144.907213895000012, -37.849412191 ], [ 144.90724688200001, -37.849438301 ], [ 144.90725374500002, -37.849466372 ], [ 144.907237977000023, -37.849481893 ], [ 144.907198187, -37.84947997 ], [ 144.907126159, -37.849425215 ], [ 144.907055736000018, -37.849368056 ], [ 144.906995673000011, -37.849303786 ], [ 144.906932242000011, -37.849243407 ], [ 144.906885561, -37.849200042 ], [ 144.906730915, -37.849045366 ], [ 144.906613846, -37.84891719 ], [ 144.906494893, -37.848787463 ], [ 144.906280433, -37.848580068 ], [ 144.906086339000012, -37.848397348 ], [ 144.90588703100002, -37.848196298 ], [ 144.905760911000016, -37.848048526 ], [ 144.905592414000012, -37.847887981 ], [ 144.905533354, -37.847823406 ], [ 144.905430030000019, -37.847737712 ], [ 144.905279534000016, -37.84762069 ], [ 144.905225944000023, -37.847589239 ], [ 144.905147671, -37.847524324 ], [ 144.904664607, -37.8470431 ], [ 144.904509134000023, -37.846875166 ], [ 144.904284717, -37.846652641 ], [ 144.903938338000017, -37.846323763 ], [ 144.903657966, -37.846024829 ], [ 144.902320729, -37.846633337 ], [ 144.901335578000015, -37.845629407 ], [ 144.900072045, -37.844344754 ], [ 144.898732171, -37.842789201 ], [ 144.897872800000016, -37.841327761 ], [ 144.897718270000013, -37.840889062 ], [ 144.89771596, -37.840882482 ], [ 144.897657540000012, -37.840716632 ], [ 144.897656900000015, -37.840714822 ], [ 144.897320080000014, -37.839758551 ], [ 144.89710624, -37.838342892 ], [ 144.897106040000011, -37.838341552 ], [ 144.89709277, -37.838253682 ], [ 144.897085370000013, -37.838165002 ], [ 144.89708528, -37.838163912 ], [ 144.897034030000015, -37.837550022 ], [ 144.89703284, -37.837483962 ], [ 144.89698127, -37.83463487 ], [ 144.897266167, -37.832494994 ], [ 144.897850642, -37.830600322 ], [ 144.899334011, -37.828432652 ] ] ] } }
]
}
