{
"type": "FeatureCollection",
"name": "soil_types",
"crs": { "type": "name", "properties": { "name": "urn:ogc:def:crs:OGC:1.3:CRS84" } },
"features": [
{ "type": "Feature", "properties": { "soil_type": "Duplex - ClaySilt then Clay", "sub_base": "Silurian" }, "geometry": { "type": "Polygon", "coordinates": [ [ [ 144.986195443064958, -37.838981316822867 ], [ 144.984533843873066, -37.838847230319814 ], [ 144.983281790711231, -37.838350358465284 ], [ 144.98136253737087, -37.83789486023251 ], [ 144.980242237233398, -37.837453040970999 ], [ 144.979656007117768, -37.836967552347502 ], [ 144.980864470880533, -37.83661850670984 ], [ 144.982528888442062, -37.836647041724319 ], [ 144.984064467192468, -37.83651487042895 ], [ 144.985539210476503, -37.836170335861496 ], [ 144.986959753274391, -37.836177044781294 ], [ 144.986398419998096, -37.838931489592277 ], [ 144.986195443064958, -37.838981316822867 ] ] ] } },
{ "type": "Feature", "properties": { "soil_type": "Sandy Loam", "sub_base": "Tertiary Sediments" }, "geometry": { "type": "Polygon", "coordinates": [ [ [ 144.970770841336304, -37.828204184266184 ], [ 144.971394543050764, -37.827316899095081 ], [ 144.971278760745236, -37.826680998021921 ], [ 144.970560986371339, -37.826140372687618 ], [ 144.969548374659695, -37.825891884363031 ], [ 144.969647865227927, -37.825437897967646 ], [ 144.969824408984522, -37.823856176985267 ], [ 144.969946730832504, -37.823699140900345 ], [ 144.970087774340271, -37.823966368972499 ], [ 144.971741777154847, -37.824364652578389 ], [ 144.973003628459168, -37.824492034693073 ], [ 144.974667765555836, -37.824520673053847 ], [ 144.975598240445066, -37.824589501022885 ], [ 144.975640276762221, -37.825488258233051 ], [ 144.976356641073096, -37.826081654286789 ], [ 144.978006404437963, -37.826638254402958 ], [ 144.97872712153594, -37.827073234322434 ], [ 144.978961698841061, -37.828239423653656 ], [ 144.979063142519522, -37.829403327176408 ], [ 144.980106665060646, -37.830213618381258 ], [ 144.981429448835883, -37.830553258900068 ], [ 144.982044414899974, -37.829982719966338 ], [ 144.983265692363176, -37.829158437247152 ], [ 144.984932817803781, -37.829081331562243 ], [ 144.986977835451285, -37.829803048240855 ], [ 144.987961037196072, -37.831112740022242 ], [ 144.987297262781425, -37.8346473084518 ], [ 144.986959753274391, -37.836177044781294 ], [ 144.985539210476503, -37.836170335861496 ], [ 144.984064467192468, -37.83651487042895 ], [ 144.982528888442062, -37.836647041724319 ], [ 144.980864470880533, -37.83661850670984 ], [ 144.979656007117768, -37.836967552347502 ], [ 144.980242237233398, -37.837453040970999 ], [ 144.98136253737087, -37.83789486023251 ], [ 144.983281790711231, -37.838350358465284 ], [ 144.984533843873066, -37.838847230319814 ], [ 144.986195443064958, -37.838981316822867 ], [ 144.986398419998096, -37.838931489592277 ], [ 144.985022086257175, -37.845678243376099 ], [ 144.984199448369139, -37.850660202621796 ], [ 144.980637949424107, -37.850205099659235 ], [ 144.975409026581389, -37.835922904368104 ], [ 144.974767758473831, -37.834896770950465 ], [ 144.974470965788129, -37.834546437631957 ], [ 144.97415536389255, -37.834239808491688 ], [ 144.973634681865377, -37.833813411691736 ], [ 144.972502329626678, -37.833064954567192 ], [ 144.972033779617277, -37.832580938822623 ], [ 144.971790401464347, -37.832251783671587 ], [ 144.971552614683503, -37.831822137052576 ], [ 144.971411566489678, -37.831366450938887 ], [ 144.971328356412243, -37.830538691275912 ], [ 144.971301436782397, -37.829896347169118 ], [ 144.969917985151966, -37.83029924881891 ], [ 144.969718239842422, -37.828793661605488 ], [ 144.970770841336304, -37.828204184266184 ] ] ] } },
{ "type": "Feature", "properties": { "soil_type": "Shallow Heavy Textured Clay", "sub_base": "Basalt Old Volcanic" }, "geometry": { "type": "Polygon", "coordinates": [ [ [ 144.960113555692828, -37.828405449781542 ], [ 144.959327886414201, -37.828537576058238 ], [ 144.958640141942595, -37.828583215988644 ], [ 144.957906281179135, -37.828574842794005 ], [ 144.957006413216192, -37.828496252869499 ], [ 144.957467373270703, -37.827604359290291 ], [ 144.958279283273271, -37.827143013560388 ], [ 144.959017342240685, -37.826944508887024 ], [ 144.959800149888906, -37.827539156116785 ], [ 144.960351868936698, -37.828345353936662 ], [ 144.960113555692828, -37.828405449781542 ] ] ] } },
{ "type": "Feature", "properties": { "soil_type": "Duplex - ClaySilt then Clay", "sub_base": "Silurian" }, "geometry": { "type": "Polygon", "coordinates": [ [ [ 144.969694164418939, -37.828608225848136 ], [ 144.969267267065845, -37.82717457526207 ], [ 144.969548374659695, -37.825891884363031 ], [ 144.970560986371339, -37.826140372687618 ], [ 144.971278760745236, -37.826680998021921 ], [ 144.971394543050764, -37.827316899095081 ], [ 144.970770841336304, -37.828204184266184 ], [ 144.969718239842422, -37.828793661605488 ], [ 144.969694164418939, -37.828608225848136 ] ] ] } },
{ "type": "Feature", "properties": { "soil_type": "Deep Stratified Sand/ Silt/ Clay/ Gravel", "sub_base": "Alluvial Flat" }, "geometry": { "type": "Polygon", "coordinates": [ [ [ 144.982715455837194, -37.827352940614773 ], [ 144.981446340118993, -37.827489665388619 ], [ 144.980387003573441, -37.827260196108128 ], [ 144.979744362872509, -37.826403961391321 ], [ 144.979551990747325, -37.825960447132928 ], [ 144.983201139256153, -37.827412798521195 ], [ 144.982715455837194, -37.827352940614773 ] ] ] } },
{ "type": "Feature", "properties": { "soil_type": "Duplex - ClaySilt then Clay", "sub_base": "Silurian" }, "geometry": { "type": "Polygon", "coordinates": [ [ [ 144.98782059292833, -37.830198765187532 ], [ 144.987793859656563, -37.830535890234003 ], [ 144.987961037196072, -37.831112740022242 ], [ 144.986977835451285, -37.829803048240855 ], [ 144.984932817803781, -37.829081331562243 ], [ 144.983265692363176, -37.829158437247152 ], [ 144.982044414899974, -37.829982719966338 ], [ 144.981429448835883, -37.830553258900068 ], [ 144.980106665060646, -37.830213618381258 ], [ 144.979063142519522, -37.829403327176408 ], [ 144.978961698841061, -37.828239423653656 ], [ 144.97872712153594, -37.827073234322434 ], [ 144.978006404437963, -37.826638254402958 ], [ 144.976356641073096, -37.826081654286789 ], [ 144.975640276762221, -37.825488258233051 ], [ 144.975598240445066, -37.824589501022885 ], [ 144.974667765555836, -37.824520673053847 ], [ 144.973003628459168, -37.824492034693073 ], [ 144.971741777154847, -37.824364652578389 ], [ 144.970087774340271, -37.823966368972499 ], [ 144.96958130449255, -37.823006776555488 ], [ 144.970501600774526, -37.821015273124864 ], [ 144.972381239323113, -37.820466576157202 ], [ 144.974240640062305, -37.820657058731648 ], [ 144.975870071353455, -37.82195289606635 ], [ 144.977758611151927, -37.823517289782302 ], [ 144.977800673707009, -37.824416047106737 ], [ 144.978715303629059, -37.825065659692811 ], [ 144.979305757634592, -37.82539274847359 ], [ 144.979744362872509, -37.826403961391321 ], [ 144.980387003573441, -37.827260196108128 ], [ 144.981446340118993, -37.827489665388619 ], [ 144.982715455837194, -37.827352940614773 ], [ 144.983711107786462, -37.827475647189317 ], [ 144.985301573448453, -37.827767002245238 ], [ 144.986022346111696, -37.828201938945838 ], [ 144.987064496293073, -37.829064971368723 ], [ 144.987649281843005, -37.829603224398838 ], [ 144.987907503634801, -37.829713434701382 ], [ 144.98782059292833, -37.830198765187532 ] ] ] } },
{ "type": "Feature", "properties": { "soil_type": "Deep Stratified Sand/ Silt/ Clay/ Gravel", "sub_base": "Alluvial Flat" }, "geometry": { "type": "Polygon", "coordinates": [ [ [ 144.988638645871532, -37.825546538177782 ], [ 144.988170267672984, -37.828246050805866 ], [ 144.986909272863386, -37.827424723089237 ], [ 144.98473118476312, -37.826700728043789 ], [ 144.981557511216607, -37.825853978048976 ], [ 144.979338883916654, -37.824178328500324 ], [ 144.977149190915725, -37.821446623104109 ], [ 144.975725202484824, -37.819943033122733 ], [ 144.973301426638386, -37.818475046964188 ], [ 144.970708479895706, -37.818324735489902 ], [ 144.972190136601853, -37.817716355202016 ], [ 144.973810662455747, -37.816899043273644 ], [ 144.975445777028455, -37.817983681548171 ], [ 144.976073875447526, -37.819367945512965 ], [ 144.977052107576355, -37.820124315118683 ], [ 144.977635309179249, -37.820715415421546 ], [ 144.978733736177048, -37.821949266183488 ], [ 144.979098549222442, -37.82322334286745 ], [ 144.981257771583302, -37.824633850237582 ], [ 144.983105804971729, -37.825246604005109 ], [ 144.984898793663803, -37.825435781925705 ], [ 144.987642378250996, -37.82495445052102 ], [ 144.988704892417616, -37.825117688074926 ], [ 144.988638645871532, -37.825546538177782 ] ] ] } },
{ "type": "Feature", "properties": { "soil_type": "Shallow Heavy Textured Clay", "sub_base": "Basalt New Volcanic" }, "geometry": { "type": "Polygon", "coordinates": [ [ [ 144.989280673634966, -37.82149868747711 ], [ 144.988704892417616, -37.825117688074926 ], [ 144.987642378250996, -37.82495445052102 ], [ 144.984898793663803, -37.825435781925705 ], [ 144.983105804971729, -37.825246604005109 ], [ 144.981257771583302, -37.824633850237582 ], [ 144.979098549222442, -37.82322334286745 ], [ 144.978733736177048, -37.821949266183488 ], [ 144.977635309179249, -37.820715415421546 ], [ 144.977052107576355, -37.820124315118683 ], [ 144.976073875447526, -37.819367945512965 ], [ 144.975445777028455, -37.817983681548171 ], [ 144.973810662455747, -37.816899043273644 ], [ 144.972190136601853, -37.817716355202016 ], [ 144.970708479895706, -37.818324735489902 ], [ 144.970759321862658, -37.818327683319893 ], [ 144.967969394929753, -37.818647274899483 ], [ 144.961809581655359, -37.819861444147307 ], [ 144.960691127873616, -37.819366648381987 ], [ 144.966253329272064, -37.818089391024685 ], [ 144.970815526969744, -37.816847464288472 ], [ 144.975121448083883, -37.815231172337839 ], [ 144.977051608693671, -37.815264349092516 ], [ 144.978573786063464, -37.815607444787965 ], [ 144.979058727220291, -37.817359015483206 ], [ 144.980615859242391, -37.818864849461043 ], [ 144.983374047072886, -37.820285589027577 ], [ 144.985234915269359, -37.820423097519623 ], [ 144.985621368935966, -37.820905140769888 ], [ 144.986402901543698, -37.821552417024193 ], [ 144.987401352171787, -37.821569488153443 ], [ 144.988542965299075, -37.82121921682014 ], [ 144.989397724379501, -37.820787979836417 ], [ 144.989280673634966, -37.82149868747711 ] ] ] } },
{ "type": "Feature", "properties": { "soil_type": "Duplex - ClaySilt then Clay", "sub_base": "Silurian" }, "geometry": { "type": "Polygon", "coordinates": [ [ [ 144.960732534056405, -37.819357141358722 ], [ 144.960491971988773, -37.81932904411476 ], [ 144.959024696753062, -37.820219214289978 ], [ 144.956543185160058, -37.821263441299088 ], [ 144.954671613713344, -37.821116494810454 ], [ 144.95367478513117, -37.820641377046307 ], [ 144.954049522020426, -37.820132867532806 ], [ 144.955535791431629, -37.818556393836843 ], [ 144.956855715321836, -37.817778159650125 ], [ 144.957865139048181, -37.817795671292629 ], [ 144.958728784363871, -37.817867871784671 ], [ 144.959441927063779, -37.818166356622129 ], [ 144.960076674309107, -37.818692377860714 ], [ 144.960639327320536, -37.819217147049628 ], [ 144.961055807229087, -37.819282915969268 ], [ 144.960732534056405, -37.819357141358722 ] ] ] } },
{ "type": "Feature", "properties": { "soil_type": "Shallow Heavy Textured Clay", "sub_base": "Basalt New Volcanic" }, "geometry": { "type": "Polygon", "coordinates": [ [ [ 144.990122291132309, -37.814021642848125 ], [ 144.989677487947858, -37.813799455799767 ], [ 144.98923850723034, -37.813362772707961 ], [ 144.989281183532029, -37.811789813288151 ], [ 144.988661974494732, -37.811350050384341 ], [ 144.987433285752417, -37.810113024825924 ], [ 144.987398489151786, -37.809438079562824 ], [ 144.99129681174233, -37.809853396268238 ], [ 144.990580035387296, -37.814014330912016 ], [ 144.990122291132309, -37.814021642848125 ] ] ] } },
{ "type": "Feature", "properties": { "soil_type": "Medium to Heavy Textured Clay with some Sand", "sub_base": "Alluvial Flat" }, "geometry": { "type": "Polygon", "coordinates": [ [ [ 144.974240640062305, -37.820657058731648 ], [ 144.972381239323113, -37.820466576157202 ], [ 144.970501600774526, -37.821015273124864 ], [ 144.96958130449255, -37.823006776555488 ], [ 144.969946730832504, -37.823699140900345 ], [ 144.969824408984522, -37.823856176985267 ], [ 144.969647865227927, -37.825437897967646 ], [ 144.969267267065845, -37.82717457526207 ], [ 144.969694164418939, -37.828608225848136 ], [ 144.969917985151966, -37.83029924881891 ], [ 144.965845043, -37.831482245 ], [ 144.962963973330403, -37.828567742289486 ], [ 144.962868733482964, -37.828626796222764 ], [ 144.962785960000019, -37.828581047 ], [ 144.962657144002407, -37.828619472535927 ], [ 144.96232584161973, -37.828484746399255 ], [ 144.962189661080657, -37.828374635563449 ], [ 144.962233968757687, -37.828333560964559 ], [ 144.962073146702068, -37.828241831100065 ], [ 144.961626903482454, -37.828118106497222 ], [ 144.961200814860916, -37.828141024986586 ], [ 144.960351868936698, -37.828345353936662 ], [ 144.959800149888906, -37.827539156116785 ], [ 144.959017342240685, -37.826944508887024 ], [ 144.958279283273271, -37.827143013560388 ], [ 144.957467373270703, -37.827604359290291 ], [ 144.957006413216192, -37.828496252869499 ], [ 144.955831750032388, -37.828305889796319 ], [ 144.95256061153205, -37.827585881782653 ], [ 144.948523762831257, -37.826927408468087 ], [ 144.947435508295456, -37.826836507831089 ], [ 144.947247049807203, -37.826997694656235 ], [ 144.94692067359577, -37.82689876335256 ], [ 144.94693967, -37.826807073 ], [ 144.946545624617784, -37.826784786082648 ], [ 144.946389821691412, -37.826673225905715 ], [ 144.94619396748206, -37.826605918561604 ], [ 144.945593218, -37.826500185 ], [ 144.945278074583513, -37.826484503294651 ], [ 144.942828482950574, -37.826053547554039 ], [ 144.941702815000014, -37.825956728 ], [ 144.94116965, -37.826023558 ], [ 144.941114596, -37.825952028 ], [ 144.939311389667353, -37.825941027934036 ], [ 144.939093174047628, -37.825892582356488 ], [ 144.938399416631768, -37.825878970887885 ], [ 144.937675797102969, -37.825936662196064 ], [ 144.937623303816622, -37.825895010884899 ], [ 144.93757607351688, -37.825932848373711 ], [ 144.937548820163244, -37.825910214099672 ], [ 144.937208676593798, -37.82592633799505 ], [ 144.937084975527512, -37.826021482040829 ], [ 144.937008514248504, -37.825958936237114 ], [ 144.935529130438454, -37.826056226195554 ], [ 144.93472780031891, -37.826240686644297 ], [ 144.934657349975623, -37.826183055111102 ], [ 144.934461485818105, -37.826300624089278 ], [ 144.932275867658461, -37.826472644005946 ], [ 144.931131224753187, -37.826766542880812 ], [ 144.927191266804243, -37.827682188062354 ], [ 144.925486877075571, -37.827968115365181 ], [ 144.923157254974484, -37.828417763849188 ], [ 144.922155032837992, -37.828760772592865 ], [ 144.922184272706403, -37.828854898947732 ], [ 144.921332188413942, -37.829287818637788 ], [ 144.920798548795204, -37.829615391473794 ], [ 144.920902477575908, -37.829952637260753 ], [ 144.920301151476821, -37.830069214229404 ], [ 144.919488344639547, -37.831201276688795 ], [ 144.919065509999911, -37.831493712226731 ], [ 144.918159081295073, -37.832255009061285 ], [ 144.916451537316561, -37.832775770501591 ], [ 144.914157224779331, -37.833747540607277 ], [ 144.913264530189167, -37.834026315590918 ], [ 144.914034666732903, -37.834956800704191 ], [ 144.914340907563144, -37.835464641046507 ], [ 144.91482257531888, -37.836963634538414 ], [ 144.91487228117191, -37.836953987421516 ], [ 144.915421041884144, -37.838622953862227 ], [ 144.915004691310969, -37.838721621163046 ], [ 144.915256336835682, -37.839448442223677 ], [ 144.915240703751124, -37.839506047016002 ], [ 144.91246791592414, -37.840991739836007 ], [ 144.912641930310201, -37.841402196798214 ], [ 144.913010773919353, -37.841909874106726 ], [ 144.912938589745607, -37.841944225951806 ], [ 144.913194438961654, -37.842283724807857 ], [ 144.91326683877935, -37.84222117027965 ], [ 144.913556629983447, -37.842647484500162 ], [ 144.913748566399079, -37.843000168627022 ], [ 144.914141539546875, -37.843564232889904 ], [ 144.914179899976034, -37.843699852719773 ], [ 144.914157818282831, -37.843978127444437 ], [ 144.914240684603129, -37.844147455530489 ], [ 144.91440467198268, -37.844313787450645 ], [ 144.914837646024921, -37.844391307031501 ], [ 144.914285809006117, -37.844709758523564 ], [ 144.91268714095807, -37.845503498879992 ], [ 144.912527469568573, -37.845771954784077 ], [ 144.912521387673252, -37.845865016520129 ], [ 144.912640826364395, -37.846042513429573 ], [ 144.913915194923277, -37.847679139061398 ], [ 144.914460460214002, -37.848447863009859 ], [ 144.914471193320594, -37.848557664613153 ], [ 144.914295156485622, -37.84867190437717 ], [ 144.913423831945892, -37.849031144563348 ], [ 144.912667295, -37.849423896 ], [ 144.912487603760951, -37.849452692507853 ], [ 144.91219365917155, -37.849082371824593 ], [ 144.912115398, -37.848929272 ], [ 144.911960252083844, -37.84898914883901 ], [ 144.908842658, -37.844856257 ], [ 144.908670154000021, -37.844665602 ], [ 144.908401845568022, -37.844789029236708 ], [ 144.908304224054433, -37.844621273379822 ], [ 144.90783473800002, -37.843156593 ], [ 144.907759037, -37.84317396 ], [ 144.907717882000014, -37.843064466 ], [ 144.90762757600001, -37.843076894 ], [ 144.907652062000011, -37.843149839 ], [ 144.907611800000012, -37.843165494 ], [ 144.907627454000021, -37.843185652 ], [ 144.907543845000021, -37.843221592 ], [ 144.907476931000019, -37.843188825 ], [ 144.906527757022531, -37.84162010013528 ], [ 144.906721068, -37.841547431 ], [ 144.906508425663787, -37.841216810697802 ], [ 144.906549615000017, -37.84112302 ], [ 144.906439135, -37.840950807 ], [ 144.906495905000014, -37.839622856 ], [ 144.906480453, -37.839376106 ], [ 144.906205114000016, -37.839368667 ], [ 144.906191536000023, -37.839288179 ], [ 144.906010159, -37.839239744 ], [ 144.90594349600002, -37.839127859 ], [ 144.905678193, -37.839097074 ], [ 144.905340394, -37.839110061 ], [ 144.905020656, -37.83905744 ], [ 144.90297092, -37.839464522 ], [ 144.90355127852348, -37.840981272553428 ], [ 144.903428171988594, -37.841027657179581 ], [ 144.903154574516407, -37.841431867403394 ], [ 144.90438292717829, -37.843585685847593 ], [ 144.904732373563604, -37.844082411692995 ], [ 144.904901875, -37.844510016 ], [ 144.905088628000016, -37.844855207 ], [ 144.905633281, -37.845764411 ], [ 144.906033042000018, -37.846358505 ], [ 144.906077134000014, -37.846499041 ], [ 144.9063158718198, -37.846883570115502 ], [ 144.905444313514323, -37.84748755963092 ], [ 144.905447269870422, -37.847627366429322 ], [ 144.905607768144648, -37.847819302620842 ], [ 144.905789108715567, -37.847885556616369 ], [ 144.905809729265059, -37.848011976387291 ], [ 144.905990262808899, -37.848228931211516 ], [ 144.90724688200001, -37.849438301 ], [ 144.907237977000023, -37.849481893 ], [ 144.907055736000018, -37.849368056 ], [ 144.905533354, -37.847823406 ], [ 144.905147671, -37.847524324 ], [ 144.903657966, -37.846024829 ], [ 144.9023207294249, -37.846633336806647 ], [ 144.900072045, -37.844344754 ], [ 144.899467416200253, -37.843642798336013 ], [ 144.899843738710302, -37.843357505163375 ], [ 144.89898021801821, -37.841863001925653 ], [ 144.897637112806763, -37.834739368485614 ], [ 144.898412168406907, -37.831837275544856 ], [ 144.899390586703845, -37.829276883550378 ], [ 144.900510520125806, -37.829155186256422 ], [ 144.902357821337461, -37.827614451980267 ], [ 144.906220332773842, -37.824965060123773 ], [ 144.906961597262466, -37.824262938118281 ], [ 144.907714963131554, -37.823131844732096 ], [ 144.914993862903685, -37.820828941071866 ], [ 144.920966428675968, -37.820076191079743 ], [ 144.9263781136533, -37.820028564528656 ], [ 144.934675490757343, -37.820973364628792 ], [ 144.943148381266269, -37.822812096653195 ], [ 144.944184080318195, -37.823886691693168 ], [ 144.947630769535436, -37.824475077524987 ], [ 144.947787301652085, -37.82363260071903 ], [ 144.949584520750506, -37.823663913299306 ], [ 144.954039923974307, -37.823899896671008 ], [ 144.957392883968254, -37.823060082257122 ], [ 144.96251997084272, -37.820666121588324 ], [ 144.96594070814271, -37.819774407595354 ], [ 144.972151120574694, -37.819141973884584 ], [ 144.974132059595632, -37.819757155666764 ], [ 144.974912033477921, -37.820457305875422 ], [ 144.975241386383459, -37.821452929842017 ], [ 144.974240640062305, -37.820657058731648 ] ] ] } },
{ "type": "Feature", "properties": { "soil_type": null, "sub_base": "Water" }, "geometry": { "type": "Polygon", "coordinates": [ [ [ 144.961809581655359, -37.819861444147307 ], [ 144.967969394929753, -37.818647274899483 ], [ 144.970759321862658, -37.818327683319893 ], [ 144.973301426638386, -37.818475046964188 ], [ 144.975725202484824, -37.819943033122733 ], [ 144.977149190915725, -37.821446623104109 ], [ 144.979338883916654, -37.824178328500324 ], [ 144.981557511216607, -37.825853978048976 ], [ 144.98473118476312, -37.826700728043789 ], [ 144.986909272863386, -37.827424723089237 ], [ 144.988170267672984, -37.828246050805866 ], [ 144.987907503634801, -37.829713434701382 ], [ 144.987649281843005, -37.829603224398838 ], [ 144.987064496293073, -37.829064971368723 ], [ 144.986022346111696, -37.828201938945838 ], [ 144.985301573448453, -37.827767002245238 ], [ 144.983711107786462, -37.827475647189317 ], [ 144.983201139256153, -37.827412798521195 ], [ 144.979551990747325, -37.825960447132928 ], [ 144.979305757634592, -37.82539274847359 ], [ 144.978715303629059, -37.825065659692811 ], [ 144.977800673707009, -37.824416047106737 ], [ 144.977758611151927, -37.823517289782302 ], [ 144.975241386383459, -37.821452929842017 ], [ 144.974912033477921, -37.820457305875422 ], [ 144.974132059595632, -37.819757155666764 ], [ 144.972151120574694, -37.819141973884584 ], [ 144.96594070814271, -37.819774407595354 ], [ 144.96251997084272, -37.820666121588324 ], [ 144.957392883968254, -37.823060082257122 ], [ 144.954039923974307, -37.823899896671008 ], [ 144.949584520750506, -37.823663913299306 ], [ 144.947787301652085, -37.82363260071903 ], [ 144.947630769535436, -37.824475077524987 ], [ 144.944184080318195, -37.823886691693168 ], [ 144.943148381266269, -37.822812096653195 ], [ 144.934675490757343, -37.820973364628792 ], [ 144.9263781136533, -37.820028564528656 ], [ 144.920966428675968, -37.820076191079743 ], [ 144.914993862903685, -37.820828941071866 ], [ 144.907714963131554, -37.823131844732096 ], [ 144.906961597262466, -37.824262938118281 ], [ 144.906220332773842, -37.824965060123773 ], [ 144.902357821337461, -37.827614451980267 ], [ 144.900510520125806, -37.829155186256422 ], [ 144.899390586703845, -37.829276883550378 ], [ 144.898412168406907, -37.831837275544856 ], [ 144.897637112806763, -37.834739368485614 ], [ 144.89898021801821, -37.841863001925653 ], [ 144.899843738710302, -37.843357505163375 ], [ 144.899467416200253, -37.843642798336013 ], [ 144.898732171, -37.842789201 ], [ 144.897872799208812, -37.8413277571346 ], [ 144.897320080000014, -37.839758551 ], [ 144.897092774455501, -37.838253687535016 ], [ 144.897034029669413, -37.83755000364814 ], [ 144.896986297177534, -37.834912606887123 ], [ 144.89708621929438, -37.833846590459387 ], [ 144.897218497565831, -37.832853041568406 ], [ 144.897550840531977, -37.831572177848429 ], [ 144.89780693371992, -37.830742009590516 ], [ 144.898207874392568, -37.830078292794603 ], [ 144.899199387402916, -37.828629379538924 ], [ 144.899749554651777, -37.827981765863242 ], [ 144.900406776191431, -37.827268646844942 ], [ 144.901805611118903, -37.825944607272042 ], [ 144.905086676, -37.823188497 ], [ 144.90606479500002, -37.82224416 ], [ 144.906640988000021, -37.821005248 ], [ 144.906534206816502, -37.819770538691401 ], [ 144.906286804152245, -37.818393106960869 ], [ 144.905627419139336, -37.815682185475822 ], [ 144.905440935286975, -37.814550597483091 ], [ 144.905468085987366, -37.813453849506608 ], [ 144.905926202694559, -37.811090554935411 ], [ 144.906306085932954, -37.809392913463363 ], [ 144.90668417582458, -37.808232509143629 ], [ 144.907567773145274, -37.806137173124455 ], [ 144.907616848006427, -37.806498620869036 ], [ 144.906986845007026, -37.808375827434872 ], [ 144.906154452254668, -37.812309505428559 ], [ 144.906486838776999, -37.815863320400943 ], [ 144.908248351537168, -37.819900325248057 ], [ 144.911757591027396, -37.818245889681315 ], [ 144.912372684059704, -37.809215353640759 ], [ 144.915040065749366, -37.809262614048144 ], [ 144.914667352920219, -37.817381871877302 ], [ 144.916871883070058, -37.818508157986372 ], [ 144.919632584346118, -37.817813052534419 ], [ 144.92809377293554, -37.814471556596317 ], [ 144.928907784829278, -37.816317060287936 ], [ 144.926658315310505, -37.816792490988981 ], [ 144.925612096705578, -37.818090225054497 ], [ 144.930809737138475, -37.81795278488314 ], [ 144.933911664290832, -37.817950032396269 ], [ 144.943830101837023, -37.814060712281119 ], [ 144.944992313582475, -37.81636998613974 ], [ 144.945444676709684, -37.818266292043049 ], [ 144.94055982513558, -37.820126586565614 ], [ 144.933458321558106, -37.818685994717768 ], [ 144.932285544167485, -37.819352098453791 ], [ 144.947703623736857, -37.822654756647374 ], [ 144.952520508260818, -37.823253642632693 ], [ 144.954617923967191, -37.82306119977796 ], [ 144.957166896557197, -37.822189859156303 ], [ 144.961777088805235, -37.819847069787983 ], [ 144.961809581655359, -37.819861444147307 ] ] ] } },
{ "type": "Feature", "properties": { "soil_type": "Sandy Loam", "sub_base": "Tertiary Sediments" }, "geometry": { "type": "Polygon", "coordinates": [ [ [ 144.949738524459121, -37.803863293574587 ], [ 144.951108193710297, -37.803887132648839 ], [ 144.953502886265369, -37.803356526106356 ], [ 144.954955681566275, -37.802981191276828 ], [ 144.95538347241478, -37.803160294071233 ], [ 144.955043056794068, -37.805042801225973 ], [ 144.954934314452487, -37.805498711028086 ], [ 144.954886254695595, -37.8054978763695 ], [ 144.954201141918219, -37.806802145492753 ], [ 144.954373217109776, -37.808407428103038 ], [ 144.955786672291794, -37.80946201997768 ], [ 144.957283297294595, -37.810117464675315 ], [ 144.95871258042888, -37.810600048867762 ], [ 144.959336235819563, -37.811526454995096 ], [ 144.959963055343763, -37.812338463153324 ], [ 144.959933139922271, -37.81342521534625 ], [ 144.960042696594115, -37.814686058009244 ], [ 144.959815377264277, -37.815082692719649 ], [ 144.958451796821777, -37.814830159302375 ], [ 144.956756120259314, -37.813541802807976 ], [ 144.954927358642863, -37.81185053788063 ], [ 144.953454412471672, -37.810337103916993 ], [ 144.951598932197186, -37.809618144084787 ], [ 144.950110279977139, -37.808676642951248 ], [ 144.948938520254416, -37.806710598583791 ], [ 144.947571968095787, -37.806572338575563 ], [ 144.946040638146798, -37.807175109673096 ], [ 144.943602245487682, -37.806674754813173 ], [ 144.943042982369747, -37.806035515516513 ], [ 144.942712694567973, -37.804942476815498 ], [ 144.942097241474329, -37.803730004631646 ], [ 144.942279518062293, -37.802359797392825 ], [ 144.94438270153691, -37.801938731848558 ], [ 144.946463683027645, -37.802318387523918 ], [ 144.948665121172922, -37.803558476165229 ], [ 144.949738524459121, -37.803863293574587 ] ] ] } },
{ "type": "Feature", "properties": { "soil_type": "Medium to Heavy Textured Clay with some Sand", "sub_base": "Alluvial Flat" }, "geometry": { "type": "Polygon", "coordinates": [ [ [ 144.937826004507343, -37.788940004502422 ], [ 144.938198693558888, -37.788979864314932 ], [ 144.938752715275768, -37.788509943392619 ], [ 144.938758939165353, -37.788907641880833 ], [ 144.938280396341383, -37.790558783729701 ], [ 144.938242236626763, -37.791931509738376 ], [ 144.937848460489988, -37.793126334857675 ], [ 144.937175904895525, -37.793972927194652 ], [ 144.937155221762623, -37.794716486210618 ], [ 144.937662951646018, -37.794610929248172 ], [ 144.940143801125657, -37.793567077604642 ], [ 144.940203169443606, -37.794025913969591 ], [ 144.939891024604492, -37.794878825133317 ], [ 144.938962493473355, -37.797151567289824 ], [ 144.940404698868235, -37.799751910956452 ], [ 144.941439896708488, -37.801429527834351 ], [ 144.94092478073361, -37.804396205192454 ], [ 144.94005870132014, -37.807013391614397 ], [ 144.940247953261945, -37.807989520897337 ], [ 144.940800849507951, -37.808857560355662 ], [ 144.941938444584792, -37.809449694929711 ], [ 144.94300237721157, -37.810097756507837 ], [ 144.943699509802485, -37.810968302225419 ], [ 144.945280831600343, -37.811167580526956 ], [ 144.948121867771192, -37.812762187745115 ], [ 144.948397586105813, -37.813224789334804 ], [ 144.949735778821861, -37.814392591189097 ], [ 144.951295055303831, -37.815392551039871 ], [ 144.952136534520776, -37.816265559238573 ], [ 144.951891778013561, -37.817291345936141 ], [ 144.950982279386039, -37.818877811964029 ], [ 144.950819091756017, -37.81956166749918 ], [ 144.951019583411011, -37.820137402929348 ], [ 144.952162176645629, -37.820557853675119 ], [ 144.953025846564003, -37.820630096753376 ], [ 144.953763074399973, -37.820521571264528 ], [ 144.95367478513117, -37.820641377046307 ], [ 144.954671613713344, -37.821116494810454 ], [ 144.956543185160058, -37.821263441299088 ], [ 144.959024696753062, -37.820219214289978 ], [ 144.960491971988773, -37.81932904411476 ], [ 144.960732534056405, -37.819357141358722 ], [ 144.960691127873616, -37.819366648381987 ], [ 144.961777088805235, -37.819847069787983 ], [ 144.957166896557197, -37.822189859156303 ], [ 144.954617923967191, -37.82306119977796 ], [ 144.952520508260818, -37.823253642632693 ], [ 144.947703623736857, -37.822654756647374 ], [ 144.932285544167485, -37.819352098453791 ], [ 144.933458321558106, -37.818685994717768 ], [ 144.94055982513558, -37.820126586565614 ], [ 144.945444676709684, -37.818266292043049 ], [ 144.944992313582475, -37.81636998613974 ], [ 144.943830101837023, -37.814060712281119 ], [ 144.933911664290832, -37.817950032396269 ], [ 144.930809737138475, -37.81795278488314 ], [ 144.925612096705578, -37.818090225054497 ], [ 144.926658315310505, -37.816792490988981 ], [ 144.928907784829278, -37.816317060287936 ], [ 144.92809377293554, -37.814471556596317 ], [ 144.919632584346118, -37.817813052534419 ], [ 144.916871883070058, -37.818508157986372 ], [ 144.914667352920219, -37.817381871877302 ], [ 144.915040065749366, -37.809262614048144 ], [ 144.912372684059704, -37.809215353640759 ], [ 144.911757591027396, -37.818245889681315 ], [ 144.908248351537168, -37.819900325248057 ], [ 144.906486838776999, -37.815863320400943 ], [ 144.906154452254668, -37.812309505428559 ], [ 144.906986845007026, -37.808375827434872 ], [ 144.907616848006427, -37.806498620869036 ], [ 144.907567773145274, -37.806137173124455 ], [ 144.907789635, -37.805703786 ], [ 144.908578765411562, -37.803822633875939 ], [ 144.908925814154344, -37.803103125295436 ], [ 144.909530276368429, -37.801993905127219 ], [ 144.910363919772664, -37.80069724965422 ], [ 144.910861723543917, -37.800184137649566 ], [ 144.911359464610427, -37.799850093254186 ], [ 144.911529642, -37.799780558 ], [ 144.912144798000014, -37.799599603 ], [ 144.912660432402106, -37.799531421458916 ], [ 144.913230637426636, -37.799628776032861 ], [ 144.913425605000015, -37.799725029 ], [ 144.913945122, -37.800111976 ], [ 144.914195765000017, -37.800206476 ], [ 144.914701675, -37.800228905 ], [ 144.91498810600001, -37.800179891 ], [ 144.91526789, -37.80004513 ], [ 144.915624271223919, -37.799763454448588 ], [ 144.915967555794623, -37.799416772556256 ], [ 144.916205364962593, -37.799122274831646 ], [ 144.91638757766907, -37.798764206902909 ], [ 144.916505332683442, -37.798396145938909 ], [ 144.916535745842111, -37.798049211039412 ], [ 144.916302819, -37.797478702 ], [ 144.916137096, -37.797240279 ], [ 144.915716142, -37.796786445 ], [ 144.914679449181051, -37.796025623264867 ], [ 144.913513312742168, -37.79541039643432 ], [ 144.911702931089138, -37.794586625898347 ], [ 144.91101100357821, -37.794342388003756 ], [ 144.908743047957785, -37.793773154677744 ], [ 144.908048098615694, -37.793479446390982 ], [ 144.906775619, -37.792861631 ], [ 144.904790235806104, -37.7921082659606 ], [ 144.903808472162325, -37.791667213008147 ], [ 144.90351504100002, -37.791465483 ], [ 144.903328001, -37.791282559 ], [ 144.903130898, -37.791032475 ], [ 144.902878126774624, -37.790622218249652 ], [ 144.90274178092298, -37.790275578338225 ], [ 144.902675481018974, -37.789909519699684 ], [ 144.902675932835933, -37.789651734297593 ], [ 144.903273485950649, -37.789403122508141 ], [ 144.903547543810788, -37.789716723579062 ], [ 144.904908833765177, -37.790027070572158 ], [ 144.905948528060122, -37.788958296802257 ], [ 144.906610084204715, -37.788512261961017 ], [ 144.90742222778897, -37.787840001009869 ], [ 144.908014921409915, -37.787278285388666 ], [ 144.909333135064259, -37.786557774376355 ], [ 144.909637529436822, -37.785990932104347 ], [ 144.909879520041045, -37.78507963423003 ], [ 144.910324815864641, -37.784629739473225 ], [ 144.911711806629796, -37.784024870112269 ], [ 144.913367735629379, -37.78411144415864 ], [ 144.914650471694955, -37.784649184558006 ], [ 144.916500133499568, -37.785540289274927 ], [ 144.917795761768645, -37.785620426996928 ], [ 144.918580492833428, -37.785920421089841 ], [ 144.919286743833283, -37.786447922024685 ], [ 144.919847260871933, -37.787030069522253 ], [ 144.920114692592193, -37.787778712719089 ], [ 144.920664002130053, -37.788761230785433 ], [ 144.920644760886631, -37.789447586394211 ], [ 144.921147665300623, -37.789513689127823 ], [ 144.922294418197595, -37.789762824013053 ], [ 144.923007138734476, -37.790061518698046 ], [ 144.923208944523935, -37.790580099153253 ], [ 144.923711859370513, -37.790646191214371 ], [ 144.923473218886471, -37.791443128428519 ], [ 144.923172107607343, -37.791895615711184 ], [ 144.922792509239798, -37.792575616224156 ], [ 144.922052522416323, -37.793249257052636 ], [ 144.920801569740547, -37.794142771186678 ], [ 144.920566092912907, -37.794825308323468 ], [ 144.920979316861889, -37.795519298780427 ], [ 144.921847463718791, -37.795420172655383 ], [ 144.922930241374843, -37.795382050381711 ], [ 144.923644619131153, -37.795623546268921 ], [ 144.924504760348611, -37.7958103823049 ], [ 144.925510664394977, -37.795942555275865 ], [ 144.926662330012391, -37.796020061406175 ], [ 144.927522484418489, -37.796206875739131 ], [ 144.927650658522992, -37.796781377448525 ], [ 144.927083739601585, -37.799003158953646 ], [ 144.927191126922082, -37.800321214553513 ], [ 144.928267582974456, -37.80051183104684 ], [ 144.928759385317818, -37.800978278871192 ], [ 144.928885977793101, -37.80160997579889 ], [ 144.929001387823917, -37.802642047907547 ], [ 144.929196875524696, -37.803389405175743 ], [ 144.930345468445978, -37.803581271678631 ], [ 144.931223277591926, -37.803138899733753 ], [ 144.931684518293196, -37.802116959205208 ], [ 144.932017530624023, -37.800520518671263 ], [ 144.932826399263291, -37.79996247408981 ], [ 144.933857879439216, -37.799179431130902 ], [ 144.934463220261449, -37.798160006526452 ], [ 144.934408665459131, -37.797529578362301 ], [ 144.933135123113544, -37.796648863547617 ], [ 144.932444623323477, -37.795549474187517 ], [ 144.931911059626827, -37.793995039518222 ], [ 144.933149128968296, -37.793558977013213 ], [ 144.933889021425017, -37.792885263603033 ], [ 144.93355732575742, -37.791849399329323 ], [ 144.933065229494758, -37.788430723939769 ], [ 144.937826004507343, -37.788940004502422 ] ] ] } },
{ "type": "Feature", "properties": { "soil_type": "Shallow Heavy Textured Clay", "sub_base": "Basalt Old Volcanic" }, "geometry": { "type": "Polygon", "coordinates": [ [ [ 144.948023683216775, -37.782431340191401 ], [ 144.946878527338185, -37.782125259103935 ], [ 144.945369882394402, -37.781927276422849 ], [ 144.944340352381516, -37.782653235714761 ], [ 144.944017212733854, -37.783906542556316 ], [ 144.942747642689426, -37.785486669402111 ], [ 144.942709572571744, -37.786859400453935 ], [ 144.943532489964696, -37.78791422372359 ], [ 144.94227623004511, -37.789484171523156 ], [ 144.942593760074175, -37.79103478856473 ], [ 144.943929888134932, -37.792259843323791 ], [ 144.945361907051904, -37.792628184179001 ], [ 144.948996697099375, -37.79417938715951 ], [ 144.950187248338892, -37.795459061558105 ], [ 144.950948515558935, -37.796616805989814 ], [ 144.950421816825155, -37.79740878794118 ], [ 144.949190103096413, -37.797616243935373 ], [ 144.948557191858725, -37.797032972467754 ], [ 144.948814571306087, -37.7955496107759 ], [ 144.948831974113943, -37.794920440939961 ], [ 144.94826008906395, -37.794738804518751 ], [ 144.947454556802057, -37.795182566234814 ], [ 144.9473523962792, -37.796268056767843 ], [ 144.947331813438808, -37.797011620251205 ], [ 144.946947653732707, -37.797863295307536 ], [ 144.946066828210093, -37.798420183690162 ], [ 144.94612148272688, -37.79905060926751 ], [ 144.946401893835201, -37.799341623317801 ], [ 144.947973480045391, -37.799884041793014 ], [ 144.948432366475856, -37.803427367328631 ], [ 144.946463683027645, -37.802318387523918 ], [ 144.94438270153691, -37.801938731848558 ], [ 144.942279518062293, -37.802359797392825 ], [ 144.942097241474329, -37.803730004631646 ], [ 144.942712694567973, -37.804942476815498 ], [ 144.943042982369747, -37.806035515516513 ], [ 144.943602245487682, -37.806674754813173 ], [ 144.946040638146798, -37.807175109673096 ], [ 144.947571968095787, -37.806572338575563 ], [ 144.948938520254416, -37.806710598583791 ], [ 144.950110279977139, -37.808676642951248 ], [ 144.951598932197186, -37.809618144084787 ], [ 144.953454412471672, -37.810337103916993 ], [ 144.954927358642863, -37.81185053788063 ], [ 144.956756120259314, -37.813541802807976 ], [ 144.958451796821777, -37.814830159302375 ], [ 144.959815377264277, -37.815082692719649 ], [ 144.960042696594115, -37.814686058009244 ], [ 144.959933139922271, -37.81342521534625 ], [ 144.959963055343763, -37.812338463153324 ], [ 144.959336235819563, -37.811526454995096 ], [ 144.95871258042888, -37.810600048867762 ], [ 144.957283297294595, -37.810117464675315 ], [ 144.955786672291794, -37.80946201997768 ], [ 144.954373217109776, -37.808407428103038 ], [ 144.954201141918219, -37.806802145492753 ], [ 144.954886254695595, -37.8054978763695 ], [ 144.954934314452487, -37.805498711028086 ], [ 144.954951762016236, -37.805425561332633 ], [ 144.956759010144481, -37.805587610979153 ], [ 144.958902807475113, -37.806311487085793 ], [ 144.959361778254731, -37.807978961043688 ], [ 144.960461743624563, -37.809943661128905 ], [ 144.961582216586351, -37.811164783790019 ], [ 144.962458130135815, -37.813411710505392 ], [ 144.963559824862813, -37.815319187056026 ], [ 144.963446854312764, -37.816805077100518 ], [ 144.963424845617112, -37.817605843024666 ], [ 144.962826015639962, -37.81839663021541 ], [ 144.962626276248358, -37.818922312295065 ], [ 144.961055807229087, -37.819282915969268 ], [ 144.960639327320536, -37.819217147049628 ], [ 144.960076674309107, -37.818692377860714 ], [ 144.959441927063779, -37.818166356622129 ], [ 144.958728784363871, -37.817867871784671 ], [ 144.957865139048181, -37.817795671292629 ], [ 144.956855715321836, -37.817778159650125 ], [ 144.955535791431629, -37.818556393836843 ], [ 144.954049522020426, -37.820132867532806 ], [ 144.953763074399973, -37.820521571264528 ], [ 144.953025846564003, -37.820630096753376 ], [ 144.952162176645629, -37.820557853675119 ], [ 144.951019583411011, -37.820137402929348 ], [ 144.950819091756017, -37.81956166749918 ], [ 144.950982279386039, -37.818877811964029 ], [ 144.951891778013561, -37.817291345936141 ], [ 144.952136534520776, -37.816265559238573 ], [ 144.951295055303831, -37.815392551039871 ], [ 144.949735778821861, -37.814392591189097 ], [ 144.948397586105813, -37.813224789334804 ], [ 144.948121867771192, -37.812762187745115 ], [ 144.945280831600343, -37.811167580526956 ], [ 144.943699509802485, -37.810968302225419 ], [ 144.94300237721157, -37.810097756507837 ], [ 144.941938444584792, -37.809449694929711 ], [ 144.940800849507951, -37.808857560355662 ], [ 144.940247953261945, -37.807989520897337 ], [ 144.94005870132014, -37.807013391614397 ], [ 144.94092478073361, -37.804396205192454 ], [ 144.941439896708488, -37.801429527834351 ], [ 144.940404698868235, -37.799751910956452 ], [ 144.938962493473355, -37.797151567289824 ], [ 144.939891024604492, -37.794878825133317 ], [ 144.940203169443606, -37.794025913969591 ], [ 144.940143801125657, -37.793567077604642 ], [ 144.937662951646018, -37.794610929248172 ], [ 144.937155221762623, -37.794716486210618 ], [ 144.937175904895525, -37.793972927194652 ], [ 144.937848460489988, -37.793126334857675 ], [ 144.938242236626763, -37.791931509738376 ], [ 144.938280396341383, -37.790558783729701 ], [ 144.938758939165353, -37.788907641880833 ], [ 144.938752715275768, -37.788509943392619 ], [ 144.939532390020446, -37.788012063422606 ], [ 144.940365335362316, -37.787615728825671 ], [ 144.939971322264455, -37.787060169419902 ], [ 144.94023475876466, -37.786923579867917 ], [ 144.940389757002492, -37.786694462021885 ], [ 144.940396982299347, -37.786482434797357 ], [ 144.940248314775545, -37.786130303499696 ], [ 144.941464674458217, -37.784949228828026 ], [ 144.942622538833405, -37.784797785981837 ], [ 144.943595901965466, -37.783498613206845 ], [ 144.943547616052285, -37.782639397096133 ], [ 144.943709188041055, -37.782012744410473 ], [ 144.944726039236116, -37.781744368440464 ], [ 144.945104706474012, -37.781385170856716 ], [ 144.945741299766752, -37.781533180743317 ], [ 144.946606091364146, -37.78154826068085 ], [ 144.947329916408989, -37.781446427775442 ], [ 144.94733782854999, -37.781160441075848 ], [ 144.947137457230525, -37.780584699693271 ], [ 144.94773612691904, -37.779793983539172 ], [ 144.947838248014421, -37.778708489002895 ], [ 144.948895088279187, -37.77708118671579 ], [ 144.94907597207515, -37.778272247791392 ], [ 144.948334783594362, -37.779003263870258 ], [ 144.947866018136892, -37.780311271107571 ], [ 144.948055321538732, -37.781287392994969 ], [ 144.948023683216775, -37.782431340191401 ] ], [ [ 144.94077979216155, -37.794035997876705 ], [ 144.941250992112515, -37.795245955818423 ], [ 144.942309958882504, -37.79606561001286 ], [ 144.943528972982136, -37.79631580224283 ], [ 144.945197913179044, -37.795944360727589 ], [ 144.946157130598067, -37.795159946400972 ], [ 144.94589574710696, -37.794182566149622 ], [ 144.94557565325664, -37.793561354603476 ], [ 144.945269229541935, -37.793370489669051 ], [ 144.943196435615818, -37.792704834433223 ], [ 144.942256265246328, -37.792802860451189 ], [ 144.941450720517309, -37.793246580788285 ], [ 144.94077979216155, -37.794035997876705 ] ], [ [ 144.950302950330411, -37.796491122137923 ], [ 144.950314017249582, -37.796090741032607 ], [ 144.950006465548768, -37.795864034640346 ], [ 144.949450635783251, -37.796018486144476 ], [ 144.949362738486968, -37.796589203729681 ], [ 144.9495679096012, -37.796993349816859 ], [ 144.950144558774298, -37.797003388556377 ], [ 144.950302950330411, -37.796491122137923 ] ] ] } },
{ "type": "Feature", "properties": { "soil_type": "Sandy Loam", "sub_base": "Tertiary Sediments" }, "geometry": { "type": "Polygon", "coordinates": [ [ [ 144.9495679096012, -37.796993349816859 ], [ 144.949362738486968, -37.796589203729681 ], [ 144.949450635783251, -37.796018486144476 ], [ 144.950006465548768, -37.795864034640346 ], [ 144.950314017249582, -37.796090741032607 ], [ 144.950302950330411, -37.796491122137923 ], [ 144.950144558774298, -37.797003388556377 ], [ 144.9495679096012, -37.796993349816859 ] ] ] } },
{ "type": "Feature", "properties": { "soil_type": "Sandy Loam", "sub_base": "Tertiary Sediments" }, "geometry": { "type": "Polygon", "coordinates": [ [ [ 144.943528972982136, -37.79631580224283 ], [ 144.942309958882504, -37.79606561001286 ], [ 144.941250992112515, -37.795245955818423 ], [ 144.94077979216155, -37.794035997876705 ], [ 144.941450720517309, -37.793246580788285 ], [ 144.942256265246328, -37.792802860451189 ], [ 144.943196435615818, -37.792704834433223 ], [ 144.945269229541935, -37.793370489669051 ], [ 144.94557565325664, -37.793561354603476 ], [ 144.94589574710696, -37.794182566149622 ], [ 144.946157130598067, -37.795159946400972 ], [ 144.945197913179044, -37.795944360727589 ], [ 144.943528972982136, -37.79631580224283 ] ] ] } },
{ "type": "Feature", "properties": { "soil_type": "Shallow Heavy Textured Clay", "sub_base": "Basalt Old Volcanic" }, "geometry": { "type": "Polygon", "coordinates": [ [ [ 144.933254327211699, -37.789783992810065 ], [ 144.93355732575742, -37.791849399329323 ], [ 144.933889021425017, -37.792885263603033 ], [ 144.933149128968296, -37.793558977013213 ], [ 144.931911059626827, -37.793995039518222 ], [ 144.932444623323477, -37.795549474187517 ], [ 144.933135123113544, -37.796648863547617 ], [ 144.934408665459131, -37.797529578362301 ], [ 144.934463220261449, -37.798160006526452 ], [ 144.933857879439216, -37.799179431130902 ], [ 144.932826399263291, -37.79996247408981 ], [ 144.932017530624023, -37.800520518671263 ], [ 144.931684518293196, -37.802116959205208 ], [ 144.931223277591926, -37.803138899733753 ], [ 144.930345468445978, -37.803581271678631 ], [ 144.929196875524696, -37.803389405175743 ], [ 144.929001387823917, -37.802642047907547 ], [ 144.928885977793101, -37.80160997579889 ], [ 144.928759385317818, -37.800978278871192 ], [ 144.928267582974456, -37.80051183104684 ], [ 144.927191126922082, -37.800321214553513 ], [ 144.927083739601585, -37.799003158953646 ], [ 144.927650658522992, -37.796781377448525 ], [ 144.927522484418489, -37.796206875739131 ], [ 144.926662330012391, -37.796020061406175 ], [ 144.925510664394977, -37.795942555275865 ], [ 144.924504760348611, -37.7958103823049 ], [ 144.923644619131153, -37.795623546268921 ], [ 144.922930241374843, -37.795382050381711 ], [ 144.921847463718791, -37.795420172655383 ], [ 144.920979316861889, -37.795519298780427 ], [ 144.920566092912907, -37.794825308323468 ], [ 144.920801569740547, -37.794142771186678 ], [ 144.922052522416323, -37.793249257052636 ], [ 144.922792509239798, -37.792575616224156 ], [ 144.923172107607343, -37.791895615711184 ], [ 144.923473218886471, -37.791443128428519 ], [ 144.923711859370513, -37.790646191214371 ], [ 144.923208944523935, -37.790580099153253 ], [ 144.923007138734476, -37.790061518698046 ], [ 144.922294418197595, -37.789762824013053 ], [ 144.921147665300623, -37.789513689127823 ], [ 144.920644760886631, -37.789447586394211 ], [ 144.920664002130053, -37.788761230785433 ], [ 144.920114692592193, -37.787778712719089 ], [ 144.919847260871933, -37.787030069522253 ], [ 144.919286743833283, -37.786447922024685 ], [ 144.918580492833428, -37.785920421089841 ], [ 144.917795761768645, -37.785620426996928 ], [ 144.916500133499568, -37.785540289274927 ], [ 144.914650471694955, -37.784649184558006 ], [ 144.913367735629379, -37.78411144415864 ], [ 144.911711806629796, -37.784024870112269 ], [ 144.910324815864641, -37.784629739473225 ], [ 144.909879520041045, -37.78507963423003 ], [ 144.909637529436822, -37.785990932104347 ], [ 144.909333135064259, -37.786557774376355 ], [ 144.908014921409915, -37.787278285388666 ], [ 144.90742222778897, -37.787840001009869 ], [ 144.906610084204715, -37.788512261961017 ], [ 144.905948528060122, -37.788958296802257 ], [ 144.904908833765177, -37.790027070572158 ], [ 144.903547543810788, -37.789716723579062 ], [ 144.903273485950649, -37.789403122508141 ], [ 144.90354331, -37.789285483 ], [ 144.904010605, -37.788954147 ], [ 144.904249885000013, -37.788718456 ], [ 144.904658559187794, -37.788008066465494 ], [ 144.904932976620444, -37.787302031002518 ], [ 144.9050327298051, -37.787321254398442 ], [ 144.905078116336284, -37.787268450722799 ], [ 144.905159664, -37.787253078 ], [ 144.906320144, -37.787450417 ], [ 144.906452066000014, -37.786903237 ], [ 144.906628112898119, -37.785592053698103 ], [ 144.906903180000455, -37.784661928187028 ], [ 144.907100354947403, -37.784206468074636 ], [ 144.907467206148795, -37.783545535277952 ], [ 144.907866286696901, -37.782981688188997 ], [ 144.908269888606213, -37.782512995773999 ], [ 144.913585632114547, -37.779390270999713 ], [ 144.917819577508766, -37.783851913253628 ], [ 144.92131156917003, -37.787457801413602 ], [ 144.922462985179465, -37.787402039675953 ], [ 144.929441788492682, -37.788153111954983 ], [ 144.929578051069171, -37.788603834276962 ], [ 144.931994165310954, -37.788850451708193 ], [ 144.932088361683043, -37.788346519329707 ], [ 144.933065229494758, -37.788430723939769 ], [ 144.933254327211699, -37.789783992810065 ] ] ] } },
{ "type": "Feature", "properties": { "soil_type": "Sandy Loam", "sub_base": "Tertiary Sediments" }, "geometry": { "type": "Polygon", "coordinates": [ [ [ 144.965241433305835, -37.785591302613248 ], [ 144.964139965921248, -37.786316193617466 ], [ 144.962125110729829, -37.786166898138212 ], [ 144.961476470314949, -37.786155673044952 ], [ 144.961169321164675, -37.786837056382396 ], [ 144.960586456895868, -37.787055864907686 ], [ 144.959217090241083, -37.787032144950842 ], [ 144.957396394349445, -37.787687281952749 ], [ 144.956492131438978, -37.789102219138236 ], [ 144.956233357060114, -37.790642801803799 ], [ 144.955778835084715, -37.791436062102953 ], [ 144.954315228872616, -37.792211796856144 ], [ 144.952271814981572, -37.793091882644738 ], [ 144.950903924388797, -37.79301086548962 ], [ 144.949276197172736, -37.791895261058237 ], [ 144.948199802316736, -37.791704838481287 ], [ 144.945550424206914, -37.791029178193483 ], [ 144.945351628254457, -37.790396237121271 ], [ 144.945809421194383, -37.789488625595283 ], [ 144.945384901221558, -37.789195096199208 ], [ 144.944596849440501, -37.789009671088756 ], [ 144.943614782968154, -37.788019705761954 ], [ 144.942709572571744, -37.786859400453935 ], [ 144.942747642689426, -37.785486669402111 ], [ 144.944017212733854, -37.783906542556316 ], [ 144.944340352381516, -37.782653235714761 ], [ 144.945369882394402, -37.781927276422849 ], [ 144.946878527338185, -37.782125259103935 ], [ 144.948023683216775, -37.782431340191401 ], [ 144.948055321538732, -37.781287392994969 ], [ 144.947866018136892, -37.780311271107571 ], [ 144.948334783594362, -37.779003263870258 ], [ 144.94907597207515, -37.778272247791392 ], [ 144.948895088279187, -37.77708118671579 ], [ 144.9491495209748, -37.776712791943226 ], [ 144.957755246447817, -37.777746746961029 ], [ 144.958235868793878, -37.778145262802475 ], [ 144.960742364710399, -37.778760935929938 ], [ 144.961154316910779, -37.779511993300069 ], [ 144.961140171637908, -37.780026773938467 ], [ 144.960616849967295, -37.780704414492497 ], [ 144.960809467020169, -37.781566125065019 ], [ 144.960790601993097, -37.782252498851314 ], [ 144.961277784082512, -37.782890408052936 ], [ 144.961990607733014, -37.783188869699103 ], [ 144.962930636769329, -37.783090681656276 ], [ 144.96394444856054, -37.782766399487635 ], [ 144.963586632000016, -37.785004782 ], [ 144.965525013812709, -37.785206182175614 ], [ 144.965241433305835, -37.785591302613248 ] ] ] } },
{ "type": "Feature", "properties": { "soil_type": "Deep Stratified Sand/ Silt/ Clay/ Gravel", "sub_base": "Alluvial Flat" }, "geometry": { "type": "Polygon", "coordinates": [ [ [ 144.938993686015891, -37.781669863774439 ], [ 144.938866885387, -37.781261277888937 ], [ 144.938710964943823, -37.780895328856815 ], [ 144.93898142101682, -37.780900061789971 ], [ 144.940201763266401, -37.781093084403835 ], [ 144.940688757171984, -37.781731073537991 ], [ 144.940751297889534, -37.782075516123776 ], [ 144.940594464029203, -37.782530572756151 ], [ 144.940150947780097, -37.782923390831058 ], [ 144.939853149924403, -37.783261531266177 ], [ 144.939697896212238, -37.783659389339881 ], [ 144.940261734027985, -37.784127049870683 ], [ 144.940325862265183, -37.784414295495537 ], [ 144.940241089138226, -37.784870611576935 ], [ 144.939858215392547, -37.785200066271109 ], [ 144.939336829000013, -37.783701807 ], [ 144.939214541000013, -37.782778655 ], [ 144.938993686015891, -37.781669863774439 ] ] ] } },
{ "type": "Feature", "properties": { "soil_type": "Sandy Loam", "sub_base": "Tertiary Sediments" }, "geometry": { "type": "Polygon", "coordinates": [ [ [ 144.966228060291684, -37.807459693768024 ], [ 144.966635590618182, -37.805749985337748 ], [ 144.96757984596789, -37.804192601773146 ], [ 144.968874170745124, -37.804214933689664 ], [ 144.968433933294023, -37.80592408669159 ], [ 144.967409359376887, -37.807122434821402 ], [ 144.966228060291684, -37.807459693768024 ] ] ] } },
{ "type": "Feature", "properties": { "soil_type": "Duplex - ClaySilt then Clay", "sub_base": "Silurian" }, "geometry": { "type": "Polygon", "coordinates": [ [ [ 144.96844857760081, -37.791927938036878 ], [ 144.968391207544443, -37.792260884409636 ], [ 144.975714755114353, -37.793052929302149 ], [ 144.973188149, -37.807922846 ], [ 144.987398489151786, -37.809438079562824 ], [ 144.987433285752417, -37.810113024825924 ], [ 144.988661974494732, -37.811350050384341 ], [ 144.989281183532029, -37.811789813288151 ], [ 144.98923850723034, -37.813362772707961 ], [ 144.989677487947858, -37.813799455799767 ], [ 144.990122291132309, -37.814021642848125 ], [ 144.990580035387296, -37.814014330912016 ], [ 144.989397724379501, -37.820787979836417 ], [ 144.988542965299075, -37.82121921682014 ], [ 144.987401352171787, -37.821569488153443 ], [ 144.986402901543698, -37.821552417024193 ], [ 144.985621368935966, -37.820905140769888 ], [ 144.985234915269359, -37.820423097519623 ], [ 144.983374047072886, -37.820285589027577 ], [ 144.980615859242391, -37.818864849461043 ], [ 144.979058727220291, -37.817359015483206 ], [ 144.978573786063464, -37.815607444787965 ], [ 144.977051608693671, -37.815264349092516 ], [ 144.975121448083883, -37.815231172337839 ], [ 144.970815526969744, -37.816847464288472 ], [ 144.966253329272064, -37.818089391024685 ], [ 144.962626276248358, -37.818922312295065 ], [ 144.962826015639962, -37.81839663021541 ], [ 144.963424845617112, -37.817605843024666 ], [ 144.963446854312764, -37.816805077100518 ], [ 144.963559824862813, -37.815319187056026 ], [ 144.962458130135815, -37.813411710505392 ], [ 144.961582216586351, -37.811164783790019 ], [ 144.960461743624563, -37.809943661128905 ], [ 144.959361778254731, -37.807978961043688 ], [ 144.958902807475113, -37.806311487085793 ], [ 144.956759010144481, -37.805587610979153 ], [ 144.954951762016236, -37.805425561332633 ], [ 144.95538347241478, -37.803160294071233 ], [ 144.954955681566275, -37.802981191276828 ], [ 144.953502886265369, -37.803356526106356 ], [ 144.951108193710297, -37.803887132648839 ], [ 144.949738524459121, -37.803863293574587 ], [ 144.948665121172922, -37.803558476165229 ], [ 144.948432366475856, -37.803427367328631 ], [ 144.947973480045391, -37.799884041793014 ], [ 144.946401893835201, -37.799341623317801 ], [ 144.94612148272688, -37.79905060926751 ], [ 144.946066828210093, -37.798420183690162 ], [ 144.946947653732707, -37.797863295307536 ], [ 144.947331813438808, -37.797011620251205 ], [ 144.9473523962792, -37.796268056767843 ], [ 144.947454556802057, -37.795182566234814 ], [ 144.94826008906395, -37.794738804518751 ], [ 144.948831974113943, -37.794920440939961 ], [ 144.948814571306087, -37.7955496107759 ], [ 144.948557191858725, -37.797032972467754 ], [ 144.949190103096413, -37.797616243935373 ], [ 144.950421816825155, -37.79740878794118 ], [ 144.950948515558935, -37.796616805989814 ], [ 144.950187248338892, -37.795459061558105 ], [ 144.948996697099375, -37.79417938715951 ], [ 144.945361907051904, -37.792628184179001 ], [ 144.943929888134932, -37.792259843323791 ], [ 144.942593760074175, -37.79103478856473 ], [ 144.94227623004511, -37.789484171523156 ], [ 144.943532489964696, -37.78791422372359 ], [ 144.944596849440501, -37.789009671088756 ], [ 144.945384901221558, -37.789195096199208 ], [ 144.945809421194383, -37.789488625595283 ], [ 144.945351628254457, -37.790396237121271 ], [ 144.945550424206914, -37.791029178193483 ], [ 144.948199802316736, -37.791704838481287 ], [ 144.949276197172736, -37.791895261058237 ], [ 144.950903924388797, -37.79301086548962 ], [ 144.952271814981572, -37.793091882644738 ], [ 144.954315228872616, -37.792211796856144 ], [ 144.955778835084715, -37.791436062102953 ], [ 144.956233357060114, -37.790642801803799 ], [ 144.956492131438978, -37.789102219138236 ], [ 144.957396394349445, -37.787687281952749 ], [ 144.959217090241083, -37.787032144950842 ], [ 144.960586456895868, -37.787055864907686 ], [ 144.961169321164675, -37.786837056382396 ], [ 144.961476470314949, -37.786155673044952 ], [ 144.962125110729829, -37.786166898138212 ], [ 144.964139965921248, -37.786316193617466 ], [ 144.965241433305835, -37.785591302613248 ], [ 144.965525013812709, -37.785206182175614 ], [ 144.969535106462786, -37.785621655069789 ], [ 144.96844857760081, -37.791927938036878 ] ], [ [ 144.968433933294023, -37.80592408669159 ], [ 144.968874170745124, -37.804214933689664 ], [ 144.96757984596789, -37.804192601773146 ], [ 144.966635590618182, -37.805749985337748 ], [ 144.966228060291684, -37.807459693768024 ], [ 144.967409359376887, -37.807122434821402 ], [ 144.968433933294023, -37.80592408669159 ] ] ] } },
{ "type": "Feature", "properties": { "soil_type": "Duplex - ClaySilt then Clay", "sub_base": "Silurian" }, "geometry": { "type": "Polygon", "coordinates": [ [ [ 144.962930636769329, -37.783090681656276 ], [ 144.961990607733014, -37.783188869699103 ], [ 144.961277784082512, -37.782890408052936 ], [ 144.960790601993097, -37.782252498851314 ], [ 144.960809467020169, -37.781566125065019 ], [ 144.960616849967295, -37.780704414492497 ], [ 144.961140171637908, -37.780026773938467 ], [ 144.961154316910779, -37.779511993300069 ], [ 144.960742364710399, -37.778760935929938 ], [ 144.958235868793878, -37.778145262802475 ], [ 144.957755246447817, -37.777746746961029 ], [ 144.960897965160314, -37.778126084924487 ], [ 144.961382218728062, -37.778257441089316 ], [ 144.961740555678148, -37.778399831138188 ], [ 144.962133609, -37.778661816 ], [ 144.962337837, -37.778838413 ], [ 144.96264857, -37.779247703 ], [ 144.962792358, -37.779630785 ], [ 144.962833487162698, -37.780044888316318 ], [ 144.962771664, -37.78087226 ], [ 144.962818664, -37.781184338 ], [ 144.962900547, -37.78141114 ], [ 144.963068787, -37.781695364 ], [ 144.96336641900001, -37.782009248 ], [ 144.963664182, -37.782216629 ], [ 144.96400502075835, -37.782378362226972 ], [ 144.96394444856054, -37.782766399487635 ], [ 144.962930636769329, -37.783090681656276 ] ] ] } },
{ "type": "Feature", "properties": { "soil_type": "Silt", "sub_base": "Alluvial Terrace" }, "geometry": { "type": "Polygon", "coordinates": [ [ [ 144.940241089138226, -37.784870611576935 ], [ 144.940325862265183, -37.784414295495537 ], [ 144.940261734027985, -37.784127049870683 ], [ 144.939697896212238, -37.783659389339881 ], [ 144.939853149924403, -37.783261531266177 ], [ 144.940150947780097, -37.782923390831058 ], [ 144.940594464029203, -37.782530572756151 ], [ 144.940751297889534, -37.782075516123776 ], [ 144.940688757171984, -37.781731073537991 ], [ 144.940201763266401, -37.781093084403835 ], [ 144.93898142101682, -37.780900061789971 ], [ 144.938710964943823, -37.780895328856815 ], [ 144.938555436489764, -37.780530296226161 ], [ 144.940459238940548, -37.779609740473504 ], [ 144.940475115005086, -37.779037769349209 ], [ 144.938977674410012, -37.778439327394757 ], [ 144.937334407644329, -37.778320429996405 ], [ 144.937079741663666, -37.777786930689793 ], [ 144.93795727220521, -37.777894377160621 ], [ 144.937669710596964, -37.777180488721356 ], [ 144.937926878063394, -37.77697325841654 ], [ 144.938136553517353, -37.776749891258689 ], [ 144.938295152537052, -37.776382517759565 ], [ 144.938492865419391, -37.776123450917005 ], [ 144.938637362202826, -37.775627003135604 ], [ 144.938768796879629, -37.775448129182109 ], [ 144.942618823156607, -37.775919434755714 ], [ 144.94328010889194, -37.776683336943158 ], [ 144.943519214189621, -37.778461484212251 ], [ 144.94426436600159, -37.78019123922239 ], [ 144.945318408136956, -37.781182454794831 ], [ 144.944726039236116, -37.781744368440464 ], [ 144.943709188041055, -37.782012744410473 ], [ 144.943547616052285, -37.782639397096133 ], [ 144.943595901965466, -37.783498613206845 ], [ 144.942622538833405, -37.784797785981837 ], [ 144.941464674458217, -37.784949228828026 ], [ 144.940248314775545, -37.786130303499696 ], [ 144.939858215392547, -37.785200066271109 ], [ 144.940241089138226, -37.784870611576935 ] ] ] } },
{ "type": "Feature", "properties": { "soil_type": "Deep Stratified Sand/ Silt/ Clay/ Gravel", "sub_base": "Alluvial Flat" }, "geometry": { "type": "Polygon", "coordinates": [ [ [ 144.938523831423709, -37.780456117202391 ], [ 144.937699225795029, -37.779035730839176 ], [ 144.937334407644329, -37.778320429996405 ], [ 144.938977674410012, -37.778439327394757 ], [ 144.940475115005086, -37.779037769349209 ], [ 144.940459238940548, -37.779609740473504 ], [ 144.938555436489764, -37.780530296226161 ], [ 144.938523831423709, -37.780456117202391 ] ] ] } },
{ "type": "Feature", "properties": { "soil_type": "Duplex - ClaySilt then Clay", "sub_base": "Silurian" }, "geometry": { "type": "Polygon", "coordinates": [ [ [ 144.948592088254458, -37.777519896716981 ], [ 144.947838248014421, -37.778708489002895 ], [ 144.94773612691904, -37.779793983539172 ], [ 144.947137457230525, -37.780584699693271 ], [ 144.94733782854999, -37.781160441075848 ], [ 144.947329916408989, -37.781446427775442 ], [ 144.946606091364146, -37.78154826068085 ], [ 144.945741299766752, -37.781533180743317 ], [ 144.945104706474012, -37.781385170856716 ], [ 144.945318408136956, -37.781182454794831 ], [ 144.945277051917856, -37.781144331437858 ], [ 144.945686654521978, -37.780902753700964 ], [ 144.945912351486385, -37.780563340561443 ], [ 144.946656745166109, -37.779717946401298 ], [ 144.947932456578911, -37.777908981083186 ], [ 144.948164470378515, -37.776593180157086 ], [ 144.9491495209748, -37.776712791943226 ], [ 144.948592088254458, -37.777519896716981 ] ] ] } },
{ "type": "Feature", "properties": { "soil_type": "Sandy Loam", "sub_base": "Tertiary Sediments" }, "geometry": { "type": "Polygon", "coordinates": [ [ [ 144.947932456578911, -37.777908981083186 ], [ 144.946656745166109, -37.779717946401298 ], [ 144.945912351486385, -37.780563340561443 ], [ 144.945686654521978, -37.780902753700964 ], [ 144.945277051917856, -37.781144331437858 ], [ 144.94426436600159, -37.78019123922239 ], [ 144.943519214189621, -37.778461484212251 ], [ 144.94328010889194, -37.776683336943158 ], [ 144.942618823156607, -37.775919434755714 ], [ 144.948164470378515, -37.776593180157086 ], [ 144.947932456578911, -37.777908981083186 ] ] ] } }
]
}
