{"type": "FeatureCollection", "name": "ari_study_area_boundary", "crs": {"type": "name", "properties": {"name": "urn:ogc:def:crs:OGC:1.3:CRS84"}}, "features": [{"type": "Feature", "properties": {"name": "ARI Study Area", "description": "Study area from Sinclair et al. (2021) Pre-colonial plant list for the City of Melbourne", "suburbs_included": "CARLTON, CARLTON NORTH, DOCKLANDS, EAST MELBOURNE, FLEMINGTON, KENSINGTON, MELBOURNE, NORTH MELBOURNE, PARKVILLE, PORT MELBOURNE, SOUTH WHARF, SOUTH YARRA, SOUTHBANK, WEST MELBOURNE", "area_km2": 48.34506761710989}, "geometry": {"type": "Polygon", "coordinates": [[[144.899334011, -37.828432652], [144.90606479500002, -37.82224416], [144.90664098800002, -37.821005248], [144.905468086, -37.813453849], [144.906684176, -37.808232508], [144.909219879, -37.802470128], [144.911057523, -37.800011014], [144.91273507, -37.799522749], [144.914988106, -37.800179891], [144.916222967, -37.799034673], [144.91650424300002, -37.798070933], [144.915716142, -37.796786445], [144.913677, -37.7955155], [144.903791606, -37.791676929], [144.902626961, -37.789661458], [144.904249885, -37.788718456], [144.90492714500002, -37.787294431], [144.906320144, -37.787450417], [144.906914476, -37.784622956], [144.90827827, -37.782503927], [144.91358600200002, -37.779390054], [144.91763229100002, -37.783633585], [144.92203474500002, -37.783688456], [144.922587357, -37.780356879], [144.924450005, -37.780841558], [144.92517941900002, -37.780208415], [144.926426015, -37.780325861], [144.927579178, -37.781100259], [144.928851611, -37.780898501], [144.930407167, -37.781530455], [144.930480683, -37.781062537], [144.93123525200002, -37.781359278], [144.932322445, -37.780915088], [144.933931238, -37.782529243], [144.937650953, -37.784336851], [144.939944994, -37.787037759], [144.940348849, -37.786447922], [144.938923796, -37.781436752], [144.936916002, -37.777388118], [144.93657298800002, -37.77381709], [144.93907826900002, -37.774520922], [144.93894507800002, -37.77547392], [144.96147282700002, -37.778195467], [144.96260676900002, -37.779175058], [144.962900547, -37.78141114], [144.964005348, -37.782376149], [144.96358663200002, -37.785004782], [144.969516937, -37.785618768], [144.97055350800002, -37.779156465], [144.978134552, -37.780073017], [144.973188149, -37.807922846], [144.99133062, -37.80985698], [144.987925162, -37.829617415], [144.99091732600002, -37.832900031], [144.996469082, -37.834316295], [145.000958389, -37.83352772], [145.00345865900002, -37.834520785], [145.004257389, -37.833889982], [145.003958801, -37.831442907], [145.00489886900002, -37.831175107], [145.006435277, -37.831581281], [145.003193934, -37.84809914], [144.985022921, -37.845687385], [144.9842013, -37.850667379], [144.982349683, -37.850429231], [144.981841244, -37.851340913], [144.982958615, -37.854362936], [144.982204755, -37.854514125], [144.98257208700002, -37.855526441], [144.980754031, -37.854963109], [144.97959030200002, -37.854020944], [144.977951039, -37.849520715], [144.97685196100002, -37.849422026], [144.974890487, -37.848185267], [144.973047103, -37.847920649], [144.97089122900002, -37.845959744], [144.970645956, -37.844248418], [144.97179505300002, -37.841534982], [144.971429988, -37.839811038], [144.970438854, -37.838786912], [144.96829597500002, -37.838254025], [144.967647019, -37.837384561], [144.96992932, -37.836270853], [144.97168755500002, -37.834263706], [144.97160795800002, -37.832334666], [144.97021442300002, -37.832733952], [144.96988130100002, -37.831963045], [144.970469392, -37.831833522], [144.969777539, -37.831594937], [144.96967668000002, -37.831010903], [144.970448728, -37.830864242], [144.970410026, -37.830159354], [144.965845043, -37.831482245], [144.96278596000002, -37.828581047], [144.95407168600002, -37.831074614], [144.952758675, -37.828224516], [144.94959178000002, -37.830168118], [144.947096205, -37.827522688], [144.94693967, -37.826807073], [144.940342354, -37.825947376], [144.949750962, -37.834098254], [144.945572723, -37.843047227], [144.942730563, -37.846119038], [144.937393157, -37.843910642], [144.936846694, -37.843222416], [144.93341122500001, -37.842410002], [144.931938347, -37.843221753], [144.930605711, -37.847167695], [144.929863884, -37.847326588], [144.931509476, -37.842286097], [144.930682393, -37.842761722], [144.931084287, -37.842018639], [144.931607301, -37.842009773], [144.930671469, -37.84164932], [144.93153275, -37.841652464], [144.931626679, -37.841117067], [144.92752052900002, -37.840208448], [144.92693574900002, -37.841958712], [144.926312582, -37.841827059], [144.926698351, -37.840670501], [144.923378517, -37.840654506], [144.92293432600002, -37.839942981], [144.917894784, -37.839885512], [144.915260264, -37.84087927], [144.91332813, -37.842293382], [144.917037678, -37.847443021], [144.91248243, -37.849459728], [144.908842658, -37.844856257], [144.908364689, -37.844806122], [144.90783473800002, -37.843156593], [144.906491284, -37.842023383], [144.906480453, -37.839376106], [144.905020656, -37.83905744], [144.90297092, -37.839464522], [144.904901875, -37.844510016], [144.907195996, -37.848406923], [144.90723797700002, -37.849481893], [144.903657966, -37.846024829], [144.902320729, -37.846633337], [144.89787280000002, -37.841327761], [144.89709277, -37.838253682], [144.89698127, -37.83463487], [144.897850642, -37.830600322], [144.899334011, -37.828432652]]]}}]}